[
{"latitude":-33.875,"local_government_area":"City of Fairfield","longitude":150.862,"postcode":"2176","suburb":"Abbotsbury, New South Wales"},
{"latitude":-34.08539,"local_government_area":"Camden Council","longitude":150.70744,"postcode":"2570","suburb":"Camden South, New South Wales"},
{"latitude":-34.05444,"local_government_area":"Camden Council","longitude":150.69583,"postcode":"2570","suburb":"Camden, New South Wales"},
{"latitude":-33.817,"local_government_area":"North Sydney Council","longitude":151.217,"postcode":"2062","suburb":"Cammeray, New South Wales"},
{"latitude":-33.8671,"local_government_area":"City of Canada Bay","longitude":151.1139,"postcode":"2046","suburb":"Canada Bay, New South Wales"},
{"latitude":-33.91461,"local_government_area":"Canterbury-Bankstown Council","longitude":151.10183,"postcode":"2194","suburb":"Campsie, New South Wales"},
{"latitude":-33.88502,"local_government_area":"City of Fairfield","longitude":150.9276,"postcode":"2166","suburb":"Canley Heights, New South Wales"},
{"latitude":-33.74833,"local_government_area":"City of Penrith","longitude":150.73444,"postcode":"2747","suburb":"Cambridge Park, New South Wales"},
{"latitude":-33.89013,"local_government_area":"","longitude":151.17988,"postcode":"2050","suburb":"Camperdown, New South Wales"},
{"latitude":-33.82083,"local_government_area":"City of Parramatta","longitude":151.02583,"postcode":"2142","suburb":"Camellia, New South Wales"},
{"latitude":-34.065,"local_government_area":"Campbelltown","longitude":150.81417,"postcode":"2560","suburb":"Campbelltown, New South Wales"},
{"latitude":-33.738,"local_government_area":"City of Penrith","longitude":150.721,"postcode":"2747","suburb":"Cambridge Gardens, New South Wales"},
{"latitude":-33.84802,"local_government_area":"City of Canada Bay","longitude":151.11485,"postcode":"2137","suburb":"Cabarita, New South Wales"},
{"latitude":-33.774,"local_government_area":"Penrith City Council","longitude":150.731,"postcode":"2747","suburb":"Caddens, New South Wales"},
{"latitude":-33.89472,"local_government_area":"City of Fairfield","longitude":150.915,"postcode":"2166","suburb":"Cabramatta West, New South Wales"},
{"latitude":-33.89444,"local_government_area":"City of Fairfield","longitude":150.9375,"postcode":"2166","suburb":"Cabramatta, New South Wales"},
{"latitude":-34.04972,"local_government_area":"Sutherland Shire","longitude":151.10333,"postcode":"2228","suburb":"Yowie Bay, New South Wales"},
{"latitude":-33.908,"local_government_area":"City of Sydney","longitude":151.2105,"postcode":"2017","suburb":"Zetland, New South Wales"},
{"latitude":-33.86278,"local_government_area":"","longitude":150.96611,"postcode":"2161","suburb":"Yennora, New South Wales"},
{"latitude":-34.0552,"local_government_area":"Sutherland Shire","longitude":151.0321,"postcode":"2233","suburb":"Yarrawarrah, New South Wales"},
{"latitude":-33.6222,"local_government_area":"City of Hawkesbury","longitude":150.6709,"postcode":"2753","suburb":"Yarramundi, New South Wales"},
{"latitude":-34.034,"local_government_area":"Sutherland Shire","longitude":151.026,"postcode":"2233","suburb":"Woronora Heights, New South Wales"},
{"latitude":-34.026,"local_government_area":"Sutherland Shire","longitude":151.044,"postcode":"2232","suburb":"Woronora, New South Wales"},
{"latitude":-34.04778,"local_government_area":"Sutherland Shire","longitude":151.14111,"postcode":"2230","suburb":"Woolooware, New South Wales"},
{"latitude":-33.9078,"local_government_area":"Canterbury-Bankstown Council","longitude":151.0251,"postcode":"2199","suburb":"Yagoona, New South Wales"},
{"latitude":-33.8704,"local_government_area":"City of Sydney","longitude":151.2223,"postcode":"2011","suburb":"Woolloomooloo, New South Wales"},
{"latitude":-33.84,"local_government_area":"Municipality of Hunter's Hill","longitude":151.171,"postcode":"2110","suburb":"Woolwich, New South Wales"},
{"latitude":-33.84194,"local_government_area":"Cumberland Council","longitude":150.9625,"postcode":"2164","suburb":"Woodpark, New South Wales"},
{"latitude":-33.883,"local_government_area":"Municipality of Woollahra","longitude":151.25,"postcode":"2025","suburb":"Woollahra, New South Wales"},
{"latitude":-33.759,"local_government_area":"City of Blacktown","longitude":150.878,"postcode":"2767","suburb":"Woodcroft, New South Wales"},
{"latitude":-34.04806,"local_government_area":"City of Campbelltown","longitude":150.82472,"postcode":"2560","suburb":"Woodbine, New South Wales"},
{"latitude":-33.83356,"local_government_area":"North Sydney Council","longitude":151.19128,"postcode":"2065","suburb":"Wollstonecraft, New South Wales"},
{"latitude":-33.930173,"local_government_area":"Bayside","longitude":151.154279,"postcode":"2205","suburb":"Wolli Creek, New South Wales"},
{"latitude":-33.38194,"local_government_area":"","longitude":150.985,"postcode":"2775","suburb":"Wisemans Ferry, New South Wales"},
{"latitude":-33.77747,"local_government_area":"","longitude":150.97788,"postcode":"2153","suburb":"Winston Hills, New South Wales"},
{"latitude":-33.65694,"local_government_area":"City of Hawkesbury","longitude":150.81,"postcode":"2756","suburb":"Windsor Downs, New South Wales"},
{"latitude":-33.799,"local_government_area":"City of Willoughby","longitude":151.206,"postcode":"2068","suburb":"Willoughby East, New South Wales"},
{"latitude":-33.615,"local_government_area":"City of Hawkesbury","longitude":150.81722,"postcode":"2756","suburb":"Windsor, New South Wales"},
{"latitude":-33.72528,"local_government_area":"City of Blacktown","longitude":150.7925,"postcode":"2770","suburb":"Willmot, New South Wales"},
{"latitude":-33.75833,"local_government_area":"City of Blacktown","longitude":150.80833,"postcode":"2770","suburb":"Whalan, New South Wales"},
{"latitude":-33.80739,"local_government_area":"City of Willoughby","longitude":151.20131,"postcode":"2068","suburb":"Willoughby, New South Wales"},
{"latitude":-33.84972,"local_government_area":"City of Fairfield","longitude":150.91111,"postcode":"2164","suburb":"Wetherill Park, New South Wales"},
{"latitude":-33.92583,"local_government_area":"Canterbury-Bankstown Council","longitude":151.06333,"postcode":"2195","suburb":"Wiley Park, New South Wales"},
{"latitude":-33.80833,"local_government_area":"Cumberland Council","longitude":150.98194,"postcode":"2145","suburb":"Westmead, New South Wales"},
{"latitude":-33.72299,"local_government_area":"Hornsby Shire","longitude":151.07064,"postcode":"2120","suburb":"Westleigh, New South Wales"},
{"latitude":-33.77936,"local_government_area":"","longitude":151.14462,"postcode":"","suburb":"West Killara, New South Wales"},
{"latitude":-33.93556,"local_government_area":"City of Liverpool","longitude":150.83083,"postcode":"2171","suburb":"West Hoxton, New South Wales"},
{"latitude":-33.765,"local_government_area":"Ku-ring-gai Council","longitude":151.12606,"postcode":"2073","suburb":"West Pymble, New South Wales"},
{"latitude":-33.765,"local_government_area":"Penrith City Council","longitude":150.75111,"postcode":"2747","suburb":"Werrington County, New South Wales"},
{"latitude":-33.748,"local_government_area":"","longitude":151.034,"postcode":"2125","suburb":"West Pennant Hills, New South Wales"},
{"latitude":-33.78885,"local_government_area":"","longitude":151.15281,"postcode":"","suburb":"West Lindfield, New South Wales"},
{"latitude":-33.80818,"local_government_area":"City of Ryde","longitude":151.08352,"postcode":"2114","suburb":"West Ryde, New South Wales"},
{"latitude":-33.73917,"local_government_area":"City of Penrith","longitude":150.72722,"postcode":"2747","suburb":"Werrington Downs, New South Wales"},
{"latitude":-33.75944,"local_government_area":"Penrith City Council","longitude":150.74694,"postcode":"2747","suburb":"Werrington, New South Wales"},
{"latitude":-33.4235,"local_government_area":"","longitude":150.9788,"postcode":"","suburb":"Weavers, New South Wales"},
{"latitude":-33.82639,"local_government_area":"City of Parramatta","longitude":151.07806,"postcode":"2127","suburb":"Wentworth Point, New South Wales"},
{"latitude":-34.12611,"local_government_area":"City of Campbelltown","longitude":150.81778,"postcode":"2560","suburb":"Wedderburn, New South Wales"},
{"latitude":-33.839,"local_government_area":"North Sydney Council","longitude":151.197,"postcode":"2060","suburb":"Waverton, New South Wales"},
{"latitude":-33.89778,"local_government_area":"Waverley Municipal Council","longitude":151.25028,"postcode":"2024","suburb":"Waverley, New South Wales"},
{"latitude":-33.80694,"local_government_area":"","longitude":150.9725,"postcode":"2145","suburb":"Wentworthville, New South Wales"},
{"latitude":-33.957,"local_government_area":"City of Liverpool","longitude":150.941,"postcode":"2173","suburb":"Wattle Grove, New South Wales"},
{"latitude":-33.84275,"local_government_area":"Woollahra","longitude":151.28125,"postcode":"2030","suburb":"Watsons Bay, New South Wales"},
{"latitude":-33.90028,"local_government_area":"City of Sydney","longitude":151.20778,"postcode":"2017","suburb":"Waterloo, New South Wales"},
{"latitude":-33.725,"local_government_area":"Ku-ring-gai Council","longitude":151.12338,"postcode":"2074","suburb":"Warrawee, New South Wales"},
{"latitude":-33.861,"local_government_area":"City of Canada Bay","longitude":151.132,"postcode":"2046","suburb":"Wareemba, New South Wales"},
{"latitude":-33.865,"local_government_area":"","longitude":150.64,"postcode":"2745","suburb":"Wallacia, New South Wales"},
{"latitude":-34.133,"local_government_area":"Sutherland Shire","longitude":151.0,"postcode":"2233","suburb":"Waterfall, New South Wales"},
{"latitude":-33.91395,"local_government_area":"City of Liverpool","longitude":150.93739,"postcode":"2170","suburb":"Warwick Farm, New South Wales"},
{"latitude":-33.87611,"local_government_area":"City of Fairfield","longitude":150.91222,"postcode":"2176","suburb":"Wakeley, New South Wales"},
{"latitude":-33.71217,"local_government_area":"Hornsby Shire","longitude":151.10064,"postcode":"2077","suburb":"Waitara, New South Wales"},
{"latitude":-34.0075,"local_government_area":"City of Campbelltown","longitude":150.815,"postcode":"2566","suburb":"Varroville, New South Wales"},
{"latitude":-33.959,"local_government_area":"Liverpool","longitude":150.979,"postcode":"2172","suburb":"Voyager Point, New South Wales"},
{"latitude":-33.65028,"local_government_area":"","longitude":150.85611,"postcode":"2765","suburb":"Vineyard, New South Wales"},
{"latitude":-33.88611,"local_government_area":"","longitude":150.97889,"postcode":"2163","suburb":"Villawood, New South Wales"},
{"latitude":-33.85583,"local_government_area":"","longitude":151.27111,"postcode":"","suburb":"Vaucluse, New South Wales"},
{"latitude":-33.7183,"local_government_area":"","longitude":151.1187,"postcode":"2076","suburb":"Wahroonga, New South Wales"},
{"latitude":-33.88222,"local_government_area":"City of Sydney","longitude":151.19694,"postcode":"2007","suburb":"Ultimo, New South Wales"},
{"latitude":-33.93297,"local_government_area":"Bayside Council","longitude":151.14079,"postcode":"2205","suburb":"Turrella, New South Wales"},
{"latitude":-33.75,"local_government_area":"City of Blacktown","longitude":150.79444,"postcode":"2770","suburb":"Tregear, New South Wales"},
{"latitude":-33.71822,"local_government_area":"Hornsby Shire","longitude":151.08698,"postcode":"2120","suburb":"Thornleigh, New South Wales"},
{"latitude":-33.832,"local_government_area":"City of Ryde","longitude":151.117,"postcode":"2111","suburb":"Tennyson Point, New South Wales"},
{"latitude":-33.703,"local_government_area":"","longitude":150.909,"postcode":"2769","suburb":"The Ponds, New South Wales"},
{"latitude":-33.78611,"local_government_area":"","longitude":150.95639,"postcode":"2146","suburb":"Toongabbie, New South Wales"},
{"latitude":-33.85985,"local_government_area":"City of Sydney","longitude":151.20901,"postcode":"2000","suburb":"The Rocks, New South Wales"},
{"latitude":-34.02306,"local_government_area":"Sutherland Shire","longitude":151.11167,"postcode":"2224","suburb":"Sylvania Waters, New South Wales"},
{"latitude":-33.92528,"local_government_area":"Inner West Council","longitude":151.15833,"postcode":"2044","suburb":"Tempe, New South Wales"},
{"latitude":-33.79417,"local_government_area":"City of Parramatta","longitude":151.03802,"postcode":"2117","suburb":"Telopea, New South Wales"},
{"latitude":-33.84801,"local_government_area":"City of Parramatta","longitude":151.06488,"postcode":"2127","suburb":"Sydney Olympic Park, New South Wales"},
{"latitude":-33.89806,"local_government_area":"Waverley Council","longitude":151.26806,"postcode":"2026","suburb":"Tamarama, New South Wales"},
{"latitude":-33.7338,"local_government_area":"Ku-ring-gai Council","longitude":151.1301,"postcode":"2074","suburb":"Turramurra, New South Wales"},
{"latitude":-33.91806,"local_government_area":"Inner West Council","longitude":151.16333,"postcode":"2044","suburb":"Sydenham, New South Wales"},
{"latitude":-33.8894,"local_government_area":"Strathfield Council","longitude":151.0831,"postcode":"2136","suburb":"Strathfield South, New South Wales"},
{"latitude":-34.03314,"local_government_area":"Sutherland Shire","longitude":151.0583,"postcode":"2232","suburb":"Sutherland, New South Wales"},
{"latitude":-33.88611,"local_government_area":"City of Sydney","longitude":151.21111,"postcode":"2010","suburb":"Surry Hills, New South Wales"},
{"latitude":-33.8915,"local_government_area":"Inner West Council","longitude":151.1382,"postcode":"2130","suburb":"Summer Hill, New South Wales"},
{"latitude":-33.88081,"local_government_area":"Strathfield Council,City of Canada Bay,Burwood Council","longitude":151.08308,"postcode":"2135","suburb":"Strathfield, New South Wales"},
{"latitude":-34.01917,"local_government_area":"Sutherland Shire","longitude":151.12028,"postcode":"2229","suburb":"Taren Point, New South Wales"},
{"latitude":-34.01253,"local_government_area":"Sutherland Shire","longitude":151.10604,"postcode":"2224","suburb":"Sylvania, New South Wales"},
{"latitude":-33.8942,"local_government_area":"Inner West Council","longitude":151.1644,"postcode":"2048","suburb":"Stanmore, New South Wales"},
{"latitude":-33.82613,"local_government_area":"Municipality of Lane Cove,North Sydney Council,City of Willoughby","longitude":151.19041,"postcode":"2065","suburb":"St Leonards, New South Wales"},
{"latitude":-33.711,"local_government_area":"Ku-ring-gai Council","longitude":151.1595,"postcode":"2075","suburb":"St Ives Chase, New South Wales"},
{"latitude":-33.88472,"local_government_area":"City of Fairfield","longitude":150.90694,"postcode":"2176","suburb":"St Johns Park, New South Wales"},
{"latitude":-33.723,"local_government_area":"Blacktown","longitude":150.926,"postcode":"2768","suburb":"Stanhope Gardens, New South Wales"},
{"latitude":-33.90951,"local_government_area":"","longitude":151.17723,"postcode":"2044","suburb":"St Peters, New South Wales"},
{"latitude":-33.72136,"local_government_area":"Ku-ring-gai Council","longitude":151.16844,"postcode":"2075","suburb":"St Ives, New South Wales"},
{"latitude":-33.7607,"local_government_area":"City of Penrith","longitude":150.7774,"postcode":"2760","suburb":"St Marys, New South Wales"},
{"latitude":-33.79861,"local_government_area":"Penrith City Council","longitude":150.7825,"postcode":"2759","suburb":"St Clair, New South Wales"},
{"latitude":-34.02472,"local_government_area":"City of Campbelltown","longitude":150.83056,"postcode":"2566","suburb":"St Andrews, New South Wales"},
{"latitude":-34.07194,"local_government_area":"Camden Council","longitude":150.71806,"postcode":"2570","suburb":"Spring Farm, New South Wales"},
{"latitude":-33.62528,"local_government_area":"City of Hawkesbury","longitude":150.80444,"postcode":"2756","suburb":"South Windsor, New South Wales"},
{"latitude":-34.1105,"local_government_area":"City of Campbelltown","longitude":150.8079,"postcode":"2560","suburb":"St Helens Park, New South Wales"},
{"latitude":-33.7546,"local_government_area":"Ku-ring-gai Council","longitude":151.113,"postcode":"2074","suburb":"South Turramurra, New South Wales"},
{"latitude":-33.77194,"local_government_area":"Penrith City Council","longitude":150.70333,"postcode":"2750","suburb":"South Penrith, New South Wales"},
{"latitude":-33.465,"local_government_area":"","longitude":151.068,"postcode":"","suburb":"Singletons Mill, New South Wales"},
{"latitude":-33.98,"local_government_area":"Georges River Council","longitude":151.10361,"postcode":"2221","suburb":"South Hurstville, New South Wales"},
{"latitude":-33.85444,"local_government_area":"Cumberland Council","longitude":151.00417,"postcode":"2142","suburb":"South Granville, New South Wales"},
{"latitude":-33.933,"local_government_area":"City of Randwick","longitude":151.259,"postcode":"2034","suburb":"South Coogee, New South Wales"},
{"latitude":-33.85278,"local_government_area":"","longitude":150.93194,"postcode":"2164","suburb":"Smithfield, New South Wales"},
{"latitude":-34.035,"local_government_area":"Camden Council","longitude":150.75694,"postcode":"2567","suburb":"Smeaton Grange, New South Wales"},
{"latitude":-33.82333,"local_government_area":"Cumberland Council","longitude":150.96528,"postcode":"2145","suburb":"South Wentworthville, New South Wales"},
{"latitude":-33.83,"local_government_area":"City of Parramatta","longitude":151.051,"postcode":"2128","suburb":"Silverwater, New South Wales"},
{"latitude":-33.7194,"local_government_area":"City of Blacktown","longitude":150.8,"postcode":"2770","suburb":"Shalvey, New South Wales"},
{"latitude":-33.7777,"local_government_area":"City of Blacktown","longitude":150.9416,"postcode":"2147 (1730 for Seven Hills Post Office Boxes)","suburb":"Seven Hills, New South Wales"},
{"latitude":-33.64175,"local_government_area":"","longitude":151.29012,"postcode":"","suburb":"Scotland Island, New South Wales"},
{"latitude":-33.52417,"local_government_area":"The Hills Shire","longitude":150.94861,"postcode":"2756","suburb":"South Maroota, New South Wales"},
{"latitude":-33.7,"local_government_area":"City of Blacktown","longitude":150.883,"postcode":"2762","suburb":"Schofields, New South Wales"},
{"latitude":-33.61111,"local_government_area":"City of Hawkesbury","longitude":150.88278,"postcode":"2756","suburb":"Scheyville, New South Wales"},
{"latitude":-33.98898,"local_government_area":"","longitude":151.1393,"postcode":"2219","suburb":"Sans Souci, New South Wales"},
{"latitude":-33.9985,"local_government_area":"Bayside Council","longitude":151.1363,"postcode":"2219","suburb":"Sandringham, New South Wales"},
{"latitude":-33.9125,"local_government_area":"City of Liverpool","longitude":150.88028,"postcode":"2168","suburb":"Sadleir, New South Wales"},
{"latitude":-33.71111,"local_government_area":"City of Blacktown","longitude":150.77222,"postcode":"","suburb":"Shanes Park, New South Wales"},
{"latitude":-33.48167,"local_government_area":"The Hills Shire","longitude":150.88472,"postcode":"2756","suburb":"Sackville North, New South Wales"},
{"latitude":-33.858,"local_government_area":"City of Canada Bay","longitude":151.141,"postcode":"2046","suburb":"Russell Lea, New South Wales"},
{"latitude":-33.483,"local_government_area":"City of Hawkesbury","longitude":150.9,"postcode":"2756","suburb":"Sackville, New South Wales"},
{"latitude":-33.81528,"local_government_area":"City of Ryde","longitude":151.10111,"postcode":"2112","suburb":"Ryde, New South Wales"},
{"latitude":-33.81111,"local_government_area":"City of Parramatta","longitude":151.03565,"postcode":"2116","suburb":"Rydalmere, New South Wales"},
{"latitude":-33.88833,"local_government_area":"Canterbury-Bankstown Council","longitude":151.00722,"postcode":"2162","suburb":"Sefton, New South Wales"},
{"latitude":-33.976,"local_government_area":"Sutherland Shire","longitude":150.9926,"postcode":"2172","suburb":"Sandy Point, New South Wales"},
{"latitude":-33.8774,"local_government_area":"City of Sydney","longitude":151.2282,"postcode":"2011","suburb":"Rushcutters Bay, New South Wales"},
{"latitude":-34.071,"local_government_area":"City of Campbelltown","longitude":150.8423,"postcode":"2560","suburb":"Ruse, New South Wales"},
{"latitude":-33.68162,"local_government_area":"The Hills Shire","longitude":150.91552,"postcode":"2155","suburb":"Rouse Hill, New South Wales"},
{"latitude":-33.9224,"local_government_area":"","longitude":150.76964,"postcode":"2557","suburb":"Rossmore, New South Wales"},
{"latitude":-33.7818,"local_government_area":"Ku-ring-gai Council","longitude":151.1961,"postcode":"2069","suburb":"Roseville Chase, New South Wales"},
{"latitude":-34.107,"local_government_area":"City of Campbelltown","longitude":150.793,"postcode":"2560","suburb":"Rosemeadow, New South Wales"},
{"latitude":-33.78903,"local_government_area":"","longitude":151.17119,"postcode":"2069","suburb":"Roseville, New South Wales"},
{"latitude":-33.93167,"local_government_area":"Canterbury-Bankstown Council","longitude":151.08528,"postcode":"2196","suburb":"Roselands, New South Wales"},
{"latitude":-33.827,"local_government_area":"City of Parramatta","longitude":151.03,"postcode":"2142","suburb":"Rosehill, New South Wales"},
{"latitude":-33.92361,"local_government_area":"","longitude":151.20528,"postcode":"2018","suburb":"Rosebery, New South Wales"},
{"latitude":-33.87521,"local_government_area":"","longitude":151.25557,"postcode":"2029","suburb":"Rose Bay, New South Wales"},
{"latitude":-33.865,"local_government_area":"Inner West Council","longitude":151.16722,"postcode":"2039","suburb":"Rozelle, New South Wales"},
{"latitude":-33.73306,"local_government_area":"City of Blacktown","longitude":150.79111,"postcode":"2760","suburb":"Ropes Crossing, New South Wales"},
{"latitude":-33.77167,"local_government_area":"City of Blacktown","longitude":150.84389,"postcode":"2766","suburb":"Rooty Hill, New South Wales"},
{"latitude":-33.87276,"local_government_area":"Cumberland Council","longitude":151.05562,"postcode":"2141","suburb":"Rookwood, New South Wales"},
{"latitude":-33.95329,"local_government_area":"Bayside Council","longitude":151.13996,"postcode":"2216","suburb":"Rockdale, New South Wales"},
{"latitude":-33.95,"local_government_area":"","longitude":151.05,"postcode":"2210","suburb":"Riverwood, New South Wales"},
{"latitude":-33.68194,"local_government_area":"City of Blacktown","longitude":150.85944,"postcode":"2765","suburb":"Riverstone, New South Wales"},
{"latitude":-33.82821,"local_government_area":"City of Canada Bay","longitude":151.08569,"postcode":"2138","suburb":"Rhodes, New South Wales"},
{"latitude":-33.6,"local_government_area":"City of Hawkesbury","longitude":150.75,"postcode":"2753","suburb":"Richmond, New South Wales"},
{"latitude":-33.95,"local_government_area":"Canterbury-Bankstown Council","longitude":151.01028,"postcode":"2212","suburb":"Revesby, New South Wales"},
{"latitude":-33.88583,"local_government_area":"","longitude":151.02833,"postcode":"2143","suburb":"Regents Park, New South Wales"},
{"latitude":-33.89334,"local_government_area":"City of Sydney","longitude":151.20461,"postcode":"2016","suburb":"Redfern, New South Wales"},
{"latitude":-33.91643,"local_government_area":"City of Randwick","longitude":151.23653,"postcode":"2031","suburb":"Randwick, New South Wales"},
{"latitude":-33.82466,"local_government_area":"Municipality of Lane Cove","longitude":151.1622,"postcode":"2066","suburb":"Riverview, New South Wales"},
{"latitude":-33.982,"local_government_area":"Bayside Council","longitude":151.148,"postcode":"2217","suburb":"Ramsgate Beach, New South Wales"},
{"latitude":-33.86607,"local_government_area":"City of Canada Bay","longitude":151.14366,"postcode":"2046","suburb":"Rodd Point, New South Wales"},
{"latitude":-33.98194,"local_government_area":"","longitude":151.14007,"postcode":"2217","suburb":"Ramsgate, New South Wales"},
{"latitude":-33.96806,"local_government_area":"Canterbury-Bankstown Council","longitude":151.01778,"postcode":"2212","suburb":"Revesby Heights, New South Wales"},
{"latitude":-34.025,"local_government_area":"City of Campbelltown","longitude":150.81444,"postcode":"2566","suburb":"Raby, New South Wales"},
{"latitude":-33.90111,"local_government_area":"Waverley Council","longitude":151.24806,"postcode":"2022","suburb":"Queens Park, New South Wales"},
{"latitude":-33.7783,"local_government_area":"Penrith City Council","longitude":150.66,"postcode":"2745","suburb":"Regentville, New South Wales"},
{"latitude":-33.73611,"local_government_area":"City of Blacktown","longitude":150.87778,"postcode":"2763","suburb":"Quakers Hill, New South Wales"},
{"latitude":-33.87497,"local_government_area":"City of Sydney","longitude":151.19635,"postcode":"2009","suburb":"Pyrmont, New South Wales"},
{"latitude":-33.76313,"local_government_area":"Ku-ring-gai Council","longitude":151.13481,"postcode":"2073","suburb":"Pymble, New South Wales"},
{"latitude":-33.82694,"local_government_area":"City of Ryde","longitude":151.10611,"postcode":"2112","suburb":"Putney, New South Wales"},
{"latitude":-33.933,"local_government_area":"Canterbury-Bankstown Council","longitude":151.05,"postcode":"2196","suburb":"Punchbowl, New South Wales"},
{"latitude":-33.79917,"local_government_area":"City of Blacktown","longitude":150.92556,"postcode":"2148","suburb":"Prospect, New South Wales"},
{"latitude":-33.94286,"local_government_area":"City of Liverpool","longitude":150.87116,"postcode":"2170","suburb":"Prestons, New South Wales"},
{"latitude":-33.7825,"local_government_area":"Northern Beaches Council","longitude":151.28472,"postcode":"2096","suburb":"Queenscliff, New South Wales"},
{"latitude":-33.86806,"local_government_area":"City of Sydney","longitude":151.22417,"postcode":"2011","suburb":"Potts Point, New South Wales"},
{"latitude":-33.976,"local_government_area":"City of Randwick","longitude":151.218,"postcode":"2036","suburb":"Port Botany, New South Wales"},
{"latitude":-33.87056,"local_government_area":"Municipality of Woollahra","longitude":151.25083,"postcode":"2027","suburb":"Point Piper, New South Wales"},
{"latitude":-33.89,"local_government_area":"Canterbury-Bankstown Council","longitude":151.03,"postcode":"2143","suburb":"Potts Hill, New South Wales"},
{"latitude":-33.96776,"local_government_area":"City Of Liverpool","longitude":150.978,"postcode":"2172","suburb":"Pleasure Point, New South Wales"},
{"latitude":-33.75306,"local_government_area":"City of Blacktown","longitude":150.83917,"postcode":"2761","suburb":"Plumpton, New South Wales"},
{"latitude":-33.58722,"local_government_area":"City of Hawkesbury","longitude":150.85528,"postcode":"2756","suburb":"Pitt Town, New South Wales"},
{"latitude":-33.96917,"local_government_area":"Canterbury-Bankstown Council","longitude":151.00611,"postcode":"2213","suburb":"Picnic Point, New South Wales"},
{"latitude":-33.98278,"local_government_area":"City of Randwick","longitude":151.22861,"postcode":"2036","suburb":"Phillip Bay, New South Wales"},
{"latitude":-33.8961,"local_government_area":"Inner West Council","longitude":151.1543,"postcode":"2049","suburb":"Petersham, New South Wales"},
{"latitude":-33.96556,"local_government_area":"Georges River Council","longitude":151.095,"postcode":"2222","suburb":"Penshurst, New South Wales"},
{"latitude":-33.86111,"local_government_area":"City of Fairfield","longitude":150.90472,"postcode":"2176","suburb":"Prairiewood, New South Wales"},
{"latitude":-33.74236,"local_government_area":"Hornsby","longitude":151.06643,"postcode":"2120","suburb":"Pennant Hills, New South Wales"},
{"latitude":-33.75801,"local_government_area":"City of Penrith","longitude":150.70544,"postcode":"2750","suburb":"Penrith, New South Wales"},
{"latitude":-33.8075,"local_government_area":"","longitude":150.95528,"postcode":"2145","suburb":"Pendle Hill, New South Wales"},
{"latitude":-33.817,"local_government_area":"Cumberland Council","longitude":150.926,"postcode":"2145","suburb":"Pemulwuy, New South Wales"},
{"latitude":-33.98167,"local_government_area":"Georges River Council","longitude":151.05111,"postcode":"2210","suburb":"Peakhurst Heights, New South Wales"},
{"latitude":-33.9654,"local_government_area":"Georges River Council","longitude":151.0502,"postcode":"2210","suburb":"Peakhurst, New South Wales"},
{"latitude":-33.7291,"local_government_area":"Blacktown","longitude":150.919,"postcode":"2768","suburb":"Parklea, New South Wales"},
{"latitude":-33.95806,"local_government_area":"Canterbury-Bankstown Council","longitude":151.00194,"postcode":"2213","suburb":"Panania, New South Wales"},
{"latitude":-33.815,"local_government_area":"City of Parramatta","longitude":151.00111,"postcode":"2150","suburb":"Parramatta, New South Wales"},
{"latitude":-33.6,"local_government_area":"Northern Beaches Council","longitude":151.32278,"postcode":"2108","suburb":"Palm Beach, New South Wales"},
{"latitude":-33.94222,"local_government_area":"Bayside Council","longitude":151.22278,"postcode":"2035","suburb":"Pagewood, New South Wales"},
{"latitude":-33.95583,"local_government_area":"Canterbury-Bankstown Council","longitude":151.0325,"postcode":"2211","suburb":"Padstow, New South Wales"},
{"latitude":-33.88477,"local_government_area":"","longitude":151.22621,"postcode":"2021","suburb":"Paddington, New South Wales"},
{"latitude":-33.77083,"local_government_area":"Penrith City Council","longitude":150.79333,"postcode":"2760","suburb":"Oxley Park, New South Wales"},
{"latitude":-34.00754,"local_government_area":"Sutherland Shire","longitude":151.07514,"postcode":"2225","suburb":"Oyster Bay, New South Wales"},
{"latitude":-33.78139,"local_government_area":"Penrith City Council","longitude":150.73639,"postcode":"2748","suburb":"Orchard Hills, New South Wales"},
{"latitude":-34.003,"local_government_area":"Camden Council","longitude":150.743,"postcode":"2570","suburb":"Oran Park, New South Wales"},
{"latitude":-33.78694,"local_government_area":"City of Parramatta","longitude":150.96611,"postcode":"2146","suburb":"Old Toongabbie, New South Wales"},
{"latitude":-33.86583,"local_government_area":"City of Fairfield","longitude":150.98333,"postcode":"2161","suburb":"Old Guildford, New South Wales"},
{"latitude":-33.794,"local_government_area":"City of Parramatta","longitude":151.032,"postcode":"2117","suburb":"Oatlands, New South Wales"},
{"latitude":-33.98111,"local_government_area":"Georges River Council","longitude":151.07472,"postcode":"2223","suburb":"Oatley, New South Wales"},
{"latitude":-33.62222,"local_government_area":"City of Hawkesbury","longitude":150.86694,"postcode":"2765","suburb":"Oakville, New South Wales"},
{"latitude":-33.73306,"local_government_area":"The Hills Shire","longitude":150.96361,"postcode":"2153","suburb":"Norwest, New South Wales"},
{"latitude":-33.7352,"local_government_area":"Northern Beaches Council","longitude":151.2469,"postcode":"2100","suburb":"Oxford Falls, New South Wales"},
{"latitude":-33.97306,"local_government_area":"Canterbury-Bankstown Council","longitude":151.035,"postcode":"2211","suburb":"Padstow Heights, New South Wales"},
{"latitude":-33.73194,"local_government_area":"City of Blacktown","longitude":150.835,"postcode":"2761","suburb":"Oakhurst, New South Wales"},
{"latitude":-33.82813,"local_government_area":"Municipality of Lane Cove","longitude":151.17619,"postcode":"2066","suburb":"Northwood, New South Wales"},
{"latitude":-33.78167,"local_government_area":"City of Parramatta","longitude":151.00222,"postcode":"2152","suburb":"Northmead, New South Wales"},
{"latitude":-33.81325,"local_government_area":"City of Willoughby","longitude":151.21717,"postcode":"2063","suburb":"Northbridge, New South Wales"},
{"latitude":-33.795,"local_government_area":"City of Willoughby","longitude":151.204,"postcode":"2068","suburb":"North Willoughby, New South Wales"},
{"latitude":-33.72615,"local_government_area":"Ku-ring-gai Council","longitude":151.14712,"postcode":"2074","suburb":"North Turramurra, New South Wales"},
{"latitude":-33.83965,"local_government_area":"North Sydney Council","longitude":151.20541,"postcode":"2060","suburb":"North Sydney, New South Wales"},
{"latitude":-33.8163,"local_government_area":"Municipality of Lane Cove","longitude":151.1787,"postcode":"2066","suburb":"Osborne Park, New South Wales"},
{"latitude":-33.86028,"local_government_area":"City of Canada Bay","longitude":151.08861,"postcode":"2137","suburb":"North Strathfield, New South Wales"},
{"latitude":-33.74889,"local_government_area":"Penrith City Council","longitude":150.78194,"postcode":"2760","suburb":"North St Marys, New South Wales"},
{"latitude":-33.58917,"local_government_area":"Hawkesbury","longitude":150.71111,"postcode":"2754","suburb":"North Richmond, New South Wales"},
{"latitude":-33.77611,"local_government_area":"","longitude":151.01972,"postcode":"2151","suburb":"North Rocks, New South Wales"},
{"latitude":-33.7065,"local_government_area":"Northern Beaches Council","longitude":151.2884,"postcode":"2101","suburb":"North Narrabeen, New South Wales"},
{"latitude":-33.8032,"local_government_area":"City of Parramatta","longitude":151.0055,"postcode":"2151","suburb":"North Parramatta, New South Wales"},
{"latitude":-33.79242,"local_government_area":"City of Ryde","longitude":151.11954,"postcode":"2113","suburb":"North Ryde, New South Wales"},
{"latitude":-33.701,"local_government_area":"Ku-ring-gai Council","longitude":151.126,"postcode":"2076","suburb":"North Wahroonga, New South Wales"},
{"latitude":-33.7623,"local_government_area":"Hornsby Shire","longitude":151.101,"postcode":"2121","suburb":"North Epping, New South Wales"},
{"latitude":-33.7645,"local_government_area":"Northern Beaches Council","longitude":151.2973,"postcode":"2099","suburb":"North Curl Curl, New South Wales"},
{"latitude":-33.7754,"local_government_area":"Northern Beaches Council","longitude":151.2689,"postcode":"2100","suburb":"North Manly, New South Wales"},
{"latitude":-33.88778,"local_government_area":"Waverley Council","longitude":151.28083,"postcode":"2026","suburb":"North Bondi, New South Wales"},
{"latitude":-33.715,"local_government_area":"","longitude":151.168,"postcode":"","suburb":"North St Ives, New South Wales"},
{"latitude":-33.6564,"local_government_area":"Northern Beaches Council","longitude":151.3137,"postcode":"2106","suburb":"Newport, New South Wales"},
{"latitude":-33.72521,"local_government_area":"Hornsby Shire","longitude":151.1008,"postcode":"2076","suburb":"Normanhurst, New South Wales"},
{"latitude":-33.839,"local_government_area":"City of Parramatta","longitude":151.055,"postcode":"2127","suburb":"Newington, New South Wales"},
{"latitude":-33.8345,"local_government_area":"North Sydney Council","longitude":151.2184,"postcode":"2089","suburb":"Neutral Bay, New South Wales"},
{"latitude":-33.68528,"local_government_area":"The Hills Shire","longitude":150.9525,"postcode":"2155","suburb":"North Kellyville, New South Wales"},
{"latitude":-33.897,"local_government_area":"","longitude":151.1793,"postcode":"2042","suburb":"Newtown, New South Wales"},
{"latitude":-33.9475,"local_government_area":"","longitude":151.07083,"postcode":"2209","suburb":"Narwee, New South Wales"},
{"latitude":-33.74861,"local_government_area":"Northern Beaches Council","longitude":151.26778,"postcode":"2099","suburb":"Narraweena, New South Wales"},
{"latitude":-33.615,"local_government_area":"City of Hawkesbury","longitude":150.828,"postcode":"2756","suburb":"Mulgrave, New South Wales"},
{"latitude":-33.81925,"local_government_area":"City of Willoughby","longitude":151.19971,"postcode":"2065","suburb":"Naremburn, New South Wales"},
{"latitude":-34.0504,"local_government_area":"Camden Council","longitude":150.7483,"postcode":"2567","suburb":"Narellan Vale, New South Wales"},
{"latitude":-33.8461,"local_government_area":"Penrith City Council","longitude":150.6525,"postcode":"2745","suburb":"Mulgoa, New South Wales"},
{"latitude":-33.89806,"local_government_area":"City of Fairfield","longitude":150.90111,"postcode":"2170","suburb":"Mount Pritchard, New South Wales"},
{"latitude":-33.64583,"local_government_area":"The Hills Shire","longitude":150.92194,"postcode":"2765","suburb":"Nelson, New South Wales"},
{"latitude":-33.915,"local_government_area":"Canterbury-Bankstown","longitude":151.05111,"postcode":"2190","suburb":"Mount Lewis, New South Wales"},
{"latitude":-33.77222,"local_government_area":"City of Blacktown","longitude":150.81944,"postcode":"2770","suburb":"Mount Druitt, New South Wales"},
{"latitude":-33.66382,"local_government_area":"Hornsby Shire","longitude":151.11341,"postcode":"2079","suburb":"Mount Colah, New South Wales"},
{"latitude":-34.065,"local_government_area":"Camden Council","longitude":150.76,"postcode":"2567","suburb":"Mount Annan, New South Wales"},
{"latitude":-33.7231,"local_government_area":"Northern Beaches Council","longitude":151.2952,"postcode":"2101","suburb":"Narrabeen, New South Wales"},
{"latitude":-33.829075,"local_government_area":"Mosman Council","longitude":151.24409,"postcode":"2088","suburb":"Mosman, New South Wales"},
{"latitude":-33.8437,"local_government_area":"City of Canada Bay","longitude":151.10556,"postcode":"2137","suburb":"Mortlake, New South Wales"},
{"latitude":-33.96944,"local_government_area":"Georges River Council","longitude":151.06972,"postcode":"2223","suburb":"Mortdale, New South Wales"},
{"latitude":-33.933,"local_government_area":"City of Liverpool","longitude":150.95015,"postcode":"2170","suburb":"Moorebank, New South Wales"},
{"latitude":-33.89667,"local_government_area":"City of Sydney","longitude":151.22,"postcode":"2021","suburb":"Moore Park, New South Wales"},
{"latitude":-33.9738,"local_government_area":"Bayside Council","longitude":151.1479,"postcode":"2217","suburb":"Monterey, New South Wales"},
{"latitude":-33.85694,"local_government_area":"City of Penrith","longitude":150.81,"postcode":"2178","suburb":"Mount Vernon, New South Wales"},
{"latitude":-33.67596,"local_government_area":"Northern Beaches Council","longitude":151.30653,"postcode":"2103","suburb":"Mona Vale, New South Wales"},
{"latitude":-34.03562,"local_government_area":"Sutherland Shire","longitude":151.10276,"postcode":"2228","suburb":"Miranda, New South Wales"},
{"latitude":-34.03111,"local_government_area":"City of Campbelltown","longitude":150.87417,"postcode":"2566","suburb":"Minto Heights, New South Wales"},
{"latitude":-34.02639,"local_government_area":"City of Campbelltown","longitude":150.85083,"postcode":"2566","suburb":"Minto, New South Wales"},
{"latitude":-33.783,"local_government_area":"City of Blacktown","longitude":150.833,"postcode":"2770","suburb":"Minchinbury, New South Wales"},
{"latitude":-33.84765,"local_government_area":"North Sydney Council","longitude":151.21201,"postcode":"2061","suburb":"Milsons Point, New South Wales"},
{"latitude":-33.64543,"local_government_area":"Hornsby Shire","longitude":151.13115,"postcode":"2080","suburb":"Mount Kuring-Gai, New South Wales"},
{"latitude":-33.94282,"local_government_area":"Canterbury-Bankstown Council","longitude":150.98037,"postcode":"2214","suburb":"Milperra, New South Wales"},
{"latitude":-33.915,"local_government_area":"City of Liverpool","longitude":150.84194,"postcode":"2171","suburb":"Middleton Grange, New South Wales"},
{"latitude":-33.9268,"local_government_area":"City of Liverpool","longitude":150.8724,"postcode":"2168","suburb":"Miller, New South Wales"},
{"latitude":-33.86085,"local_government_area":"City of Sydney","longitude":151.20281,"postcode":"2000","suburb":"Millers Point, New South Wales"},
{"latitude":-33.65556,"local_government_area":"","longitude":151.02083,"postcode":"2158","suburb":"Middle Dural, New South Wales"},
{"latitude":-33.7938,"local_government_area":"City of Willoughby","longitude":151.2086,"postcode":"2068","suburb":"Middle Cove, New South Wales"},
{"latitude":-33.8375,"local_government_area":"Cumberland Council","longitude":150.96167,"postcode":"2160","suburb":"Merrylands West, New South Wales"},
{"latitude":-33.8375,"local_government_area":"Cumberland Council","longitude":150.99167,"postcode":"2160","suburb":"Merrylands, New South Wales"},
{"latitude":-33.81972,"local_government_area":"","longitude":151.07722,"postcode":"2114","suburb":"Melrose Park, New South Wales"},
{"latitude":-33.81692,"local_government_area":"City of Ryde","longitude":151.08333,"postcode":"2114","suburb":"Meadowbank, New South Wales"},
{"latitude":-34.0118,"local_government_area":"Sutherland Shire","longitude":151.0089,"postcode":"2234","suburb":"Menai, New South Wales"},
{"latitude":-33.84524,"local_government_area":"North Sydney Council","longitude":151.20433,"postcode":"2060","suburb":"McMahons Point, New South Wales"},
{"latitude":-33.61944,"local_government_area":"City of Hawkesbury","longitude":150.84306,"postcode":"2756","suburb":"McGraths Hill, New South Wales"},
{"latitude":-33.517,"local_government_area":"Hornsby Shire","longitude":151.176,"postcode":"","suburb":"Milsons Passage, New South Wales"},
{"latitude":-33.92917,"local_government_area":"Bayside Council,Inner West Council","longitude":151.18806,"postcode":"2020","suburb":"Mascot, New South Wales"},
{"latitude":-33.77963,"local_government_area":"City of Ryde","longitude":151.10253,"postcode":"2122","suburb":"Marsfield, New South Wales"},
{"latitude":-33.96139,"local_government_area":"City of Randwick","longitude":151.23139,"postcode":"2036","suburb":"Matraville, New South Wales"},
{"latitude":-33.68917,"local_government_area":"City of Blacktown","longitude":150.80278,"postcode":"2765","suburb":"Marsden Park, New South Wales"},
{"latitude":-33.46028,"local_government_area":"The Hills Shire,Hornsby Shire","longitude":150.99472,"postcode":"2756","suburb":"Maroota, New South Wales"},
{"latitude":-33.9186,"local_government_area":"Inner West Council","longitude":151.14578,"postcode":"2204","suburb":"Marrickville, New South Wales"},
{"latitude":-33.94944,"local_government_area":"City of Randwick","longitude":151.24361,"postcode":"2035","suburb":"Maroubra, New South Wales"},
{"latitude":-33.75,"local_government_area":"City of Blacktown","longitude":150.9083,"postcode":"2148","suburb":"Marayong, New South Wales"},
{"latitude":-33.59778,"local_government_area":"","longitude":150.91611,"postcode":"2765","suburb":"Maraylya, New South Wales"},
{"latitude":-33.783,"local_government_area":"Northern Beaches Council","longitude":151.2622,"postcode":"2093","suburb":"Manly Vale, New South Wales"},
{"latitude":-34.08128,"local_government_area":"Sutherland Shire","longitude":151.12914,"postcode":"2230","suburb":"Maianbar"},
{"latitude":-33.7772,"local_government_area":"City of Ryde","longitude":151.12412,"postcode":"2113","suburb":"Macquarie Park, New South Wales"},
{"latitude":-33.7962,"local_government_area":"Northern Beaches Council","longitude":151.2827,"postcode":"2095","suburb":"Manly, New South Wales"},
{"latitude":-33.96556,"local_government_area":"City of Randwick","longitude":151.24861,"postcode":"2036","suburb":"Malabar, New South Wales"},
{"latitude":-33.82167,"local_government_area":"","longitude":150.99222,"postcode":"2145","suburb":"Mays Hill, New South Wales"},
{"latitude":-33.98194,"local_government_area":"City of Campbelltown","longitude":150.87389,"postcode":"2565","suburb":"Macquarie Links, New South Wales"},
{"latitude":-33.99444,"local_government_area":"Campbelltown","longitude":150.8875,"postcode":"2564","suburb":"Macquarie Fields, New South Wales"},
{"latitude":-33.93492,"local_government_area":"City of Liverpool","longitude":150.89557,"postcode":"2170","suburb":"Lurnea, New South Wales"},
{"latitude":-33.98469,"local_government_area":"Georges River Council","longitude":151.04352,"postcode":"2210","suburb":"Lugarno, New South Wales"},
{"latitude":-33.88083,"local_government_area":"","longitude":150.71472,"postcode":"2745","suburb":"Luddenham, New South Wales"},
{"latitude":-34.049,"local_government_area":"Sutherland Shire","longitude":150.975,"postcode":"2234","suburb":"Lucas Heights, New South Wales"},
{"latitude":-33.44194,"local_government_area":"","longitude":150.87889,"postcode":"2756","suburb":"Lower Portland, New South Wales"},
{"latitude":-33.83309,"local_government_area":"Municipality of Lane Cove","longitude":151.16494,"postcode":"2066","suburb":"Longueville, New South Wales"},
{"latitude":-34.01194,"local_government_area":"City of Campbelltown","longitude":150.89694,"postcode":"2564","suburb":"Long Point, New South Wales"},
{"latitude":-33.64861,"local_government_area":"City of Penrith","longitude":150.73556,"postcode":"2753","suburb":"Londonderry, New South Wales"},
{"latitude":-34.0465,"local_government_area":"Sutherland Shire","longitude":151.0471,"postcode":"2232","suburb":"Loftus, New South Wales"},
{"latitude":-33.7061,"local_government_area":"Penrith City Council","longitude":150.7453,"postcode":"2747","suburb":"Llandilo, New South Wales"},
{"latitude":-33.92065,"local_government_area":"City of Liverpool","longitude":150.92346,"postcode":"2170","suburb":"Liverpool, New South Wales"},
{"latitude":-33.8307,"local_government_area":"Municipality of Lane Cove","longitude":151.1456,"postcode":"2066","suburb":"Linley Point, New South Wales"},
{"latitude":-33.77674,"local_government_area":"Ku-ring-gai Council","longitude":151.17119,"postcode":"2070","suburb":"Lindfield, New South Wales"},
{"latitude":-33.87306,"local_government_area":"Inner West Council","longitude":151.16611,"postcode":"2040","suburb":"Lilyfield, New South Wales"},
{"latitude":-34.06833,"local_government_area":"Sutherland Shire","longitude":151.11583,"postcode":"2229","suburb":"Lilli Pilli, New South Wales"},
{"latitude":-33.98056,"local_government_area":"City of Randwick","longitude":151.24306,"postcode":"2036","suburb":"Little Bay, New South Wales"},
{"latitude":-33.8949,"local_government_area":"Inner West Council","longitude":151.144415,"postcode":"2049","suburb":"Lewisham, New South Wales"},
{"latitude":-33.765,"local_government_area":"Penrith City Council","longitude":150.64556,"postcode":"2750","suburb":"Leonay, New South Wales"},
{"latitude":-33.914,"local_government_area":"City of Liverpool","longitude":150.853,"postcode":"2171","suburb":"Len Waters Estate, New South Wales"},
{"latitude":-34.05556,"local_government_area":"Campbelltown","longitude":150.83333,"postcode":"2560","suburb":"Leumeah, New South Wales"},
{"latitude":-33.73333,"local_government_area":"City of Blacktown","longitude":150.79444,"postcode":"2770","suburb":"Lethbridge Park, New South Wales"},
{"latitude":-33.86462,"local_government_area":"","longitude":151.04563,"postcode":"2141","suburb":"Lidcombe, New South Wales"},
{"latitude":-33.965,"local_government_area":"","longitude":150.80111,"postcode":"2179","suburb":"Leppington, New South Wales"},
{"latitude":-33.84428,"local_government_area":"North Sydney Council","longitude":151.20388,"postcode":"2060","suburb":"Lavender Bay, New South Wales"},
{"latitude":-33.43,"local_government_area":"Hornsby Shire","longitude":151.02889,"postcode":"2775","suburb":"Laughtondale, New South Wales"},
{"latitude":-33.89456,"local_government_area":"City of Fairfield","longitude":150.95437,"postcode":"2166","suburb":"Lansvale, New South Wales"},
{"latitude":-33.89499,"local_government_area":"Canterbury-Bankstown Council","longitude":150.97418,"postcode":"2163","suburb":"Lansdowne, New South Wales"},
{"latitude":-33.807,"local_government_area":"","longitude":151.164,"postcode":"2066","suburb":"Lane Cove North, New South Wales"},
{"latitude":-33.88472,"local_government_area":"Inner West Council","longitude":151.15722,"postcode":"2040","suburb":"Leichhardt, New South Wales"},
{"latitude":-33.98917,"local_government_area":"Georges River Council","longitude":151.095,"postcode":"2221","suburb":"Kyle Bay, New South Wales"},
{"latitude":-33.76667,"local_government_area":"Blacktown","longitude":150.92778,"postcode":"2147","suburb":"Lalor Park, New South Wales"},
{"latitude":-33.93167,"local_government_area":"Canterbury-Bankstown Council","longitude":151.08528,"postcode":"2195","suburb":"Lakemba, New South Wales"},
{"latitude":-33.99306,"local_government_area":"City of Randwick","longitude":151.24333,"postcode":"2036","suburb":"La Perouse, New South Wales"},
{"latitude":-33.43194,"local_government_area":"The Hills Shire","longitude":150.95111,"postcode":"2775","suburb":"Leets Vale, New South Wales"},
{"latitude":-33.98338,"local_government_area":"Georges River Council","longitude":151.12166,"postcode":"2217","suburb":"Kogarah Bay, New South Wales"},
{"latitude":-33.843,"local_government_area":"North Sydney Council","longitude":151.223,"postcode":"2089","suburb":"Kurraba Point, New South Wales"},
{"latitude":-34.01159,"local_government_area":"Sutherland Shire","longitude":151.20686,"postcode":"2231","suburb":"Kurnell, New South Wales"},
{"latitude":-33.9674,"local_government_area":"","longitude":151.13648,"postcode":"2217","suburb":"Kogarah, New South Wales"},
{"latitude":-33.812,"local_government_area":"Municipality of Lane Cove","longitude":151.15,"postcode":"2066","suburb":"Lane Cove West, New South Wales"},
{"latitude":-33.81688,"local_government_area":"Lane Cove Council","longitude":151.16945,"postcode":"2066","suburb":"Lane Cove, New South Wales"},
{"latitude":-33.94829,"local_government_area":"Bayside Council","longitude":151.15711,"postcode":"2216","suburb":"Kyeemagh, New South Wales"},
{"latitude":-33.85045,"local_government_area":"North Sydney Council","longitude":151.21477,"postcode":"2061","suburb":"Kirribilli, New South Wales"},
{"latitude":-34.039,"local_government_area":"Camden Council","longitude":150.709,"postcode":"2570","suburb":"Kirkham, New South Wales"},
{"latitude":-34.03472,"local_government_area":"Sutherland Shire","longitude":151.07111,"postcode":"2232","suburb":"Kirrawee, New South Wales"},
{"latitude":-33.759,"local_government_area":"City of Penrith","longitude":150.72,"postcode":"2747","suburb":"Kingswood, New South Wales"},
{"latitude":-33.92457,"local_government_area":"City of Randwick","longitude":151.22765,"postcode":"2032","suburb":"Kingsford, New South Wales"},
{"latitude":-33.93917,"local_government_area":"","longitude":151.10139,"postcode":"2208","suburb":"Kingsgrove, New South Wales"},
{"latitude":-33.75,"local_government_area":"Blacktown","longitude":150.92,"postcode":"2147","suburb":"Kings Langley, New South Wales"},
{"latitude":-33.87373,"local_government_area":"City of Sydney","longitude":151.22357,"postcode":"","suburb":"Kings Cross, New South Wales"},
{"latitude":-33.7742,"local_government_area":"Northern Beaches Council","longitude":151.2155,"postcode":"2087","suburb":"Killarney Heights, New South Wales"},
{"latitude":-34.05194,"local_government_area":"City of Campbelltown","longitude":150.87806,"postcode":"2560","suburb":"Kentlyn, New South Wales"},
{"latitude":-33.76864,"local_government_area":"Ku-ring-gai Council","longitude":151.16347,"postcode":"2071","suburb":"Killara, New South Wales"},
{"latitude":-33.87464,"local_government_area":"","longitude":150.79868,"postcode":"2178","suburb":"Kemps Creek, New South Wales"},
{"latitude":-33.9075,"local_government_area":"City of Randwick","longitude":151.22556,"postcode":"2033","suburb":"Kensington, New South Wales"},
{"latitude":-33.66917,"local_government_area":"The Hills Shire","longitude":151.00167,"postcode":"2156","suburb":"Kenthurst, New South Wales"},
{"latitude":-33.703,"local_government_area":"City of Blacktown","longitude":150.919,"postcode":"2155","suburb":"Kellyville Ridge, New South Wales"},
{"latitude":-33.71056,"local_government_area":"The Hills Shire","longitude":150.95111,"postcode":"2155","suburb":"Kellyville, New South Wales"},
{"latitude":-33.737,"local_government_area":"City of Blacktown","longitude":150.901,"postcode":"","suburb":"Kings Park, New South Wales"},
{"latitude":-33.75801,"local_government_area":"City of Penrith","longitude":150.70544,"postcode":"2750","suburb":"Kingswood Park, New South Wales"},
{"latitude":-33.68528,"local_government_area":"The Hills Shire","longitude":150.9525,"postcode":"2155","suburb":"North Kellyville, New South Wales"},
{"latitude":-34.02361,"local_government_area":"City of Campbelltown","longitude":150.80639,"postcode":"2558","suburb":"Kearns, New South Wales"},
{"latitude":-34.002,"local_government_area":"Sutherland Shire","longitude":151.096,"postcode":"2224","suburb":"Kangaroo Point, New South Wales"},
{"latitude":-33.72389,"local_government_area":"City of Penrith","longitude":150.72806,"postcode":"2747","suburb":"Jordan Springs, New South Wales"},
{"latitude":-33.76829,"local_government_area":"City of Penrith","longitude":150.67238,"postcode":"2750","suburb":"Jamisontown, New South Wales"},
{"latitude":-34.01695,"local_government_area":"Sutherland Shire","longitude":151.06522,"postcode":"2226","suburb":"Jannali, New South Wales"},
{"latitude":-33.6823,"local_government_area":"Northern Beaches Council","longitude":151.26315,"postcode":"2101","suburb":"Ingleside, New South Wales"},
{"latitude":-33.98556,"local_government_area":"City of Campbelltown","longitude":150.85361,"postcode":"2565","suburb":"Ingleburn, New South Wales"},
{"latitude":-33.97972,"local_government_area":"Georges River Council","longitude":151.09306,"postcode":"2220","suburb":"Hurstville Grove, New South Wales"},
{"latitude":-33.96811,"local_government_area":"Georges River Council","longitude":151.10408,"postcode":"2220","suburb":"Hurstville, New South Wales"},
{"latitude":-33.839,"local_government_area":"Municipality of Hunter's Hill","longitude":151.141,"postcode":"2111","suburb":"Huntleys Cove, New South Wales"},
{"latitude":-33.91058,"local_government_area":"","longitude":151.12919,"postcode":"2193","suburb":"Hurlstone Park, New South Wales"},
{"latitude":-33.839,"local_government_area":"Municipality of Hunter's Hill","longitude":151.147,"postcode":"2111","suburb":"Huntleys Point, New South Wales"},
{"latitude":-33.799,"local_government_area":"City of Blacktown","longitude":150.885,"postcode":"2148","suburb":"Huntingwood, New South Wales"},
{"latitude":-33.8337,"local_government_area":"Municipality of Hunter's Hill","longitude":151.14366,"postcode":"2110","suburb":"Hunters Hill, New South Wales"},
{"latitude":-33.93389,"local_government_area":"City of Liverpool","longitude":150.85278,"postcode":"2171","suburb":"Hoxton Park, New South Wales"},
{"latitude":-33.6722,"local_government_area":"Hornsby Shire","longitude":151.0988,"postcode":"2077","suburb":"Hornsby Heights, New South Wales"},
{"latitude":-33.85832,"local_government_area":"City of Fairfield","longitude":150.85537,"postcode":"2175","suburb":"Horsley Park, New South Wales"},
{"latitude":-33.691277,"local_government_area":"Hornsby Shire","longitude":151.098747,"postcode":"2077","suburb":"Hornsby, New South Wales"},
{"latitude":-33.94389,"local_government_area":"City of Liverpool","longitude":150.84389,"postcode":"2171","suburb":"Horningsea Park, New South Wales"},
{"latitude":-34.00057,"local_government_area":"Sutherland Shire","longitude":151.03587,"postcode":"2234","suburb":"Illawong, New South Wales"},
{"latitude":-34.01503,"local_government_area":"Sutherland Shire","longitude":151.08046,"postcode":"2232","suburb":"Kareela, New South Wales"},
{"latitude":-33.86801,"local_government_area":"Municipality of Strathfield,Cumberland Council","longitude":151.07088,"postcode":"2140","suburb":"Homebush West, New South Wales"},
{"latitude":-33.86417,"local_government_area":"Municipality of Strathfield","longitude":151.08222,"postcode":"2140","suburb":"Homebush, New South Wales"},
{"latitude":-33.96261,"local_government_area":"City of Liverpool","longitude":150.95455,"postcode":"2173","suburb":"Holsworthy, New South Wales"},
{"latitude":-33.915,"local_government_area":"City of Liverpool","longitude":150.868,"postcode":"2168","suburb":"Hinchinbrook, New South Wales"},
{"latitude":-33.95493,"local_government_area":"Bayside Council","longitude":151.22875,"postcode":"2036","suburb":"Hillsdale, New South Wales"},
{"latitude":-33.84252,"local_government_area":"Municipality of Hunter's Hill","longitude":151.13475,"postcode":"2111","suburb":"Henley, New South Wales"},
{"latitude":-33.91068,"local_government_area":"City of Liverpool","longitude":150.88887,"postcode":"2168","suburb":"Heckenberg, New South Wales"},
{"latitude":-33.7527,"local_government_area":"City of Blacktown","longitude":150.9833,"postcode":"2770","suburb":"Hebersham, New South Wales"},
{"latitude":-34.08506,"local_government_area":"Sutherland Shire","longitude":151.00808,"postcode":"2233","suburb":"Heathcote, New South Wales"},
{"latitude":-33.88092,"local_government_area":"City of Sydney","longitude":151.20294,"postcode":"2000","suburb":"Haymarket, New South Wales"},
{"latitude":-34.02769,"local_government_area":"Camden Council","longitude":150.73081,"postcode":"2567","suburb":"Harrington Park, New South Wales"},
{"latitude":-33.82481,"local_government_area":"City of Parramatta","longitude":151.00521,"postcode":"2150","suburb":"Harris Park, New South Wales"},
{"latitude":-33.831,"local_government_area":"Cumberland Council","longitude":150.997,"postcode":"2142","suburb":"Holroyd, New South Wales"},
{"latitude":-33.95214,"local_government_area":"Liverpool","longitude":150.96076,"postcode":"2170","suburb":"Hammondville, New South Wales"},
{"latitude":-33.8833,"local_government_area":"Inner West Council","longitude":151.1416,"postcode":"2045","suburb":"Haberfield, New South Wales"},
{"latitude":-34.0333,"local_government_area":"Sutherland Shire","longitude":151.08556,"postcode":"2227","suburb":"Gymea, New South Wales"},
{"latitude":-33.850656,"local_government_area":"Cumberland Council","longitude":150.96308,"postcode":"2161","suburb":"Guildford West, New South Wales"},
{"latitude":-34.04972,"local_government_area":"Sutherland Shire","longitude":151.08639,"postcode":"2227","suburb":"Gymea Bay, New South Wales"},
{"latitude":-33.85472,"local_government_area":"Cumberland Council","longitude":150.98417,"postcode":"2161","suburb":"Guildford, New South Wales"},
{"latitude":-33.60458,"local_government_area":"City of Hawkesbury","longitude":150.74298,"postcode":"2753","suburb":"Hobartville, New South Wales"},
{"latitude":-33.667,"local_government_area":"City of Blue Mountains","longitude":150.65,"postcode":"2777","suburb":"Hawkesbury Heights, New South Wales"},
{"latitude":-33.7333,"local_government_area":"City of Blacktown","longitude":150.8333,"postcode":"2761","suburb":"Hassall Grove, New South Wales"},
{"latitude":-33.823244,"local_government_area":"Cumberland Council","longitude":150.9436333,"postcode":"2145","suburb":"Greystanes, New South Wales"},
{"latitude":-34.034689,"local_government_area":"Sutherland Shire","longitude":151.1646,"postcode":"2230","suburb":"Greenhills Beach, New South Wales"},
{"latitude":-33.99167,"local_government_area":"Camden Council","longitude":150.76667,"postcode":"2557","suburb":"Gregory Hills, New South Wales"},
{"latitude":-33.83302,"local_government_area":"Municipality of Lane Cove","longitude":151.18362,"postcode":"2065","suburb":"Greenwich, New South Wales"},
{"latitude":-33.87676,"local_government_area":"City of Fairfield","longitude":150.88819,"postcode":"2176","suburb":"Greenfield Park, New South Wales"},
{"latitude":-33.92,"local_government_area":"City of Liverpool","longitude":150.67,"postcode":"2745","suburb":"Greendale, New South Wales"},
{"latitude":-33.90596,"local_government_area":"City of Liverpool","longitude":150.86681,"postcode":"2168","suburb":"Green Valley, New South Wales"},
{"latitude":-33.59167,"local_government_area":"Northern Beaches Council","longitude":151.30083,"postcode":"2108","suburb":"Great Mackerel Beach, New South Wales"},
{"latitude":-33.90917,"local_government_area":"","longitude":151.05333,"postcode":"2190","suburb":"Greenacre, New South Wales"},
{"latitude":-34.05508,"local_government_area":"Sutherland Shire","longitude":151.07492,"postcode":"2232","suburb":"Grays Point, New South Wales"},
{"latitude":-34.057,"local_government_area":"Camden Council","longitude":150.667,"postcode":"2570","suburb":"Grasmere, New South Wales"},
{"latitude":-33.8404,"local_government_area":"","longitude":151.0079,"postcode":"2142","suburb":"Granville, New South Wales"},
{"latitude":-33.53432,"local_government_area":"City of Hawkesbury","longitude":150.78231,"postcode":"2756","suburb":"Glossodia, New South Wales"},
{"latitude":-33.75732,"local_government_area":"Ku-ring-gai Council","longitude":151.14916,"postcode":"2072","suburb":"Gordon, New South Wales"},
{"latitude":-33.734,"local_government_area":"Blacktown","longitude":150.934,"postcode":"2768","suburb":"Glenwood, New South Wales"},
{"latitude":-33.60222,"local_government_area":"","longitude":151.0025,"postcode":"2157","suburb":"Glenorie, New South Wales"},
{"latitude":-33.965,"local_government_area":"City of Campbelltown","longitude":150.893,"postcode":"2167","suburb":"Glenfield, New South Wales"},
{"latitude":-34.01167,"local_government_area":"Camden Council","longitude":150.78028,"postcode":"2557","suburb":"Gledswood Hills, New South Wales"},
{"latitude":-33.80128,"local_government_area":"Cumberland Council","longitude":150.94305,"postcode":"2145","suburb":"Girraween, New South Wales"},
{"latitude":-33.87978,"local_government_area":"City of Sydney","longitude":151.18541,"postcode":"2037","suburb":"Glebe, New South Wales"},
{"latitude":-34.09,"local_government_area":"City of Campbelltown","longitude":150.785,"postcode":"2560","suburb":"Glen Alpine, New South Wales"},
{"latitude":-33.749,"local_government_area":"City of Blacktown","longitude":150.851,"postcode":"2761","suburb":"Glendenning, New South Wales"},
{"latitude":-33.70556,"local_government_area":"","longitude":151.00333,"postcode":"2156","suburb":"Glenhaven, New South Wales"},
{"latitude":-33.8333,"local_government_area":"","longitude":151.1167,"postcode":"2111","suburb":"Gladesville, New South Wales"},
{"latitude":-33.56139,"local_government_area":"City of Hawkesbury","longitude":150.79778,"postcode":"2756","suburb":"Freemans Reach, New South Wales"},
{"latitude":-34.11767,"local_government_area":"City of Campbelltown","longitude":150.78,"postcode":"2560","suburb":"Gilead, New South Wales"},
{"latitude":-33.7749,"local_government_area":"Northern Beaches Council","longitude":151.28783,"postcode":"2096","suburb":"Freshwater, New South Wales"},
{"latitude":-33.749,"local_government_area":"Northern Beaches Council","longitude":151.2331,"postcode":"2086","suburb":"Frenchs Forest, New South Wales"},
{"latitude":-33.65,"local_government_area":"Hornsby Shire","longitude":151.043,"postcode":"2159","suburb":"Galston, New South Wales"},
{"latitude":-33.7613,"local_government_area":"Northern Beaches Council","longitude":151.2113,"postcode":"2087","suburb":"Forestville, New South Wales"},
{"latitude":-33.88396,"local_government_area":"City of Sydney","longitude":151.1815,"postcode":"2037","suburb":"Forest Lodge, New South Wales"},
{"latitude":-33.60259,"local_government_area":"Hornsby Shire","longitude":151.04984,"postcode":"2159","suburb":"Fiddletown, New South Wales"},
{"latitude":-33.87112,"local_government_area":"City of Fairfield","longitude":150.92322,"postcode":"2165","suburb":"Fairfield West, New South Wales"},
{"latitude":-33.86848,"local_government_area":"City of Fairfield","longitude":150.94239,"postcode":"2165","suburb":"Fairfield Heights, New South Wales"},
{"latitude":-33.796,"local_government_area":"Northern Beaches Council","longitude":151.277,"postcode":"2094","suburb":"Fairlight, New South Wales"},
{"latitude":-33.86512,"local_government_area":"City of Canada Bay","longitude":151.12856,"postcode":"2046","suburb":"Five Dock, New South Wales"},
{"latitude":-33.895,"local_government_area":"City of Sydney","longitude":151.191,"postcode":"2015","suburb":"Eveleigh, New South Wales"},
{"latitude":-33.87056,"local_government_area":"","longitude":150.95528,"postcode":"2165","suburb":"Fairfield, New South Wales"},
{"latitude":-34.03028,"local_government_area":"City of Campbelltown","longitude":150.80944,"postcode":"2558","suburb":"Eschol Park, New South Wales"},
{"latitude":-33.90476,"local_government_area":"City of Sydney","longitude":151.18479,"postcode":"2043","suburb":"Erskineville, New South Wales"},
{"latitude":-33.55056,"local_government_area":"Hornsby Shire","longitude":151.01972,"postcode":"2157","suburb":"Forest Glen, New South Wales"},
{"latitude":-33.91217,"local_government_area":"Canterbury-Bankstown Council","longitude":150.98557,"postcode":"2198","suburb":"Georges Hall, New South Wales"},
{"latitude":-33.81323,"local_government_area":"City of Penrith","longitude":150.80143,"postcode":"2759","suburb":"Erskine Park, New South Wales"},
{"latitude":-33.90067,"local_government_area":"Inner West Council","longitude":151.16768,"postcode":"2042","suburb":"Enmore, New South Wales"},
{"latitude":-33.81145,"local_government_area":"City of Parramatta","longitude":151.06178,"postcode":"2115","suburb":"Ermington, New South Wales"},
{"latitude":-33.7746,"local_government_area":"City of Parramatta","longitude":151.0788,"postcode":"2121","suburb":"Epping, New South Wales"},
{"latitude":-34.082,"local_government_area":"City of Campbelltown","longitude":150.794,"postcode":"2560","suburb":"Englorie Park, New South Wales"},
{"latitude":-33.86327,"local_government_area":"Municipality of Strathfield","longitude":151.07077,"postcode":"2140","suburb":"Flemington, New South Wales"},
{"latitude":-34.065722,"local_government_area":"Sutherland Shire","longitude":151.0126639,"postcode":"2233","suburb":"Engadine, New South Wales"},
{"latitude":-33.87177,"local_government_area":"City of Fairfield","longitude":150.97346,"postcode":"2165","suburb":"Fairfield East, New South Wales"},
{"latitude":-33.89059,"local_government_area":"Burwood Council","longitude":151.09246,"postcode":"2136","suburb":"Enfield, New South Wales"},
{"latitude":-33.75206,"local_government_area":"City of Penrith","longitude":150.65967,"postcode":"2750","suburb":"Emu Plains, New South Wales"},
{"latitude":-33.73521,"local_government_area":"City of Penrith","longitude":150.6503,"postcode":"2750","suburb":"Emu Heights, New South Wales"},
{"latitude":-33.639515,"local_government_area":"Northern Beaches Council","longitude":151.277825,"postcode":"2105","suburb":"Elvina Bay, New South Wales"},
{"latitude":-34.034,"local_government_area":"Camden Council","longitude":150.675,"postcode":"2570","suburb":"Ellis Lane, New South Wales"},
{"latitude":-33.9,"local_government_area":"Liverpool","longitude":150.847,"postcode":"2171","suburb":"Elizabeth Hills, New South Wales"},
{"latitude":-33.75,"local_government_area":"City of Blacktown","longitude":150.80278,"postcode":"2770","suburb":"Emerton, New South Wales"},
{"latitude":-33.87143,"local_government_area":"City of Sydney","longitude":151.22841,"postcode":"2011","suburb":"Elizabeth Bay, New South Wales"},
{"latitude":-34.05462,"local_government_area":"Camden Council","longitude":150.7125,"postcode":"2570","suburb":"Elderslie, New South Wales"},
{"latitude":-33.96371,"local_government_area":"City of Liverpool,City of Campbelltown (South)","longitude":150.85642,"postcode":"2174","suburb":"Edmondson Park, New South Wales"},
{"latitude":-33.8833,"local_government_area":"Municipality of Woollahra","longitude":151.2333,"postcode":"2027","suburb":"Edgecliff, New South Wales"},
{"latitude":-33.88095,"local_government_area":"City of Fairfield","longitude":150.87516,"postcode":"2176","suburb":"Edensor Park, New South Wales"},
{"latitude":-33.93167,"local_government_area":"Bayside Council","longitude":151.21028,"postcode":"2018","suburb":"Eastlakes, New South Wales"},
{"latitude":-33.94611,"local_government_area":"Bayside Council","longitude":151.225,"postcode":"2036","suburb":"Eastgardens, New South Wales"},
{"latitude":-33.790362,"local_government_area":"","longitude":151.081731,"postcode":"2122","suburb":"Eastwood, New South Wales"},
{"latitude":-33.79472,"local_government_area":"City of Blacktown","longitude":150.86194,"postcode":"2766","suburb":"Eastern Creek, New South Wales"},
{"latitude":-33.81,"local_government_area":"City of Ryde","longitude":151.135,"postcode":"2113","suburb":"East Ryde, New South Wales"},
{"latitude":-33.74722,"local_government_area":"","longitude":151.15806,"postcode":"","suburb":"East Gordon, New South Wales"},
{"latitude":-33.96396,"local_government_area":"Canterbury-Bankstown Council","longitude":150.98974,"postcode":"2213","suburb":"East Hills, New South Wales"},
{"latitude":-33.77274,"local_government_area":"Ku-ring-gai Council","longitude":151.18726,"postcode":"2070","suburb":"East Lindfield, New South Wales"},
{"latitude":-33.92018,"local_government_area":"Canterbury-Bankstown Council","longitude":151.12682,"postcode":"2206","suburb":"Earlwood, New South Wales"},
{"latitude":-34.03686,"local_government_area":"City of Campbelltown","longitude":150.81144,"postcode":"2558","suburb":"Eagle Vale, New South Wales"},
{"latitude":-33.70102,"local_government_area":"Northern Beaches Council","longitude":151.2789,"postcode":"2101","suburb":"Elanora Heights, New South Wales"},
{"latitude":-33.68194,"local_government_area":"","longitude":151.02889,"postcode":"2158","suburb":"Dural, New South Wales"},
{"latitude":-33.80404,"local_government_area":"City of Parramatta","longitude":151.0351,"postcode":"2117","suburb":"Dundas, New South Wales"},
{"latitude":-33.90833,"local_government_area":"Inner West Council","longitude":151.14167,"postcode":"2203","suburb":"Dulwich Hill, New South Wales"},
{"latitude":-33.79312,"local_government_area":"City of Parramatta","longitude":151.05999,"postcode":"","suburb":"Dundas Valley, New South Wales"},
{"latitude":-33.75592,"local_government_area":"Ku-ring-gai Council","longitude":151.17973,"postcode":"2071","suburb":"East Killara, New South Wales"},
{"latitude":-33.6761,"local_government_area":"Northern Beaches Council","longitude":151.1772,"postcode":"2084","suburb":"Duffys Forest, New South Wales"},
{"latitude":-33.87531,"local_government_area":"","longitude":151.21459,"postcode":"","suburb":"East Sydney, New South Wales"},
{"latitude":-33.85352,"local_government_area":"City of Canada Bay","longitude":151.15402,"postcode":"2047","suburb":"Drummoyne, New South Wales"},
{"latitude":-33.99386,"local_government_area":"Bayside Council","longitude":151.14301,"postcode":"2219","suburb":"Dolls Point, New South Wales"},
{"latitude":-33.8775,"local_government_area":"Woollahra Council","longitude":151.2412,"postcode":"2028","suburb":"Double Bay, New South Wales"},
{"latitude":-33.7694,"local_government_area":"City of Blacktown","longitude":150.8666,"postcode":"2767","suburb":"Doonside, New South Wales"},
{"latitude":-33.87185,"local_government_area":"Waverley Council","longitude":151.27837,"postcode":"2030","suburb":"Dover Heights, New South Wales"},
{"latitude":-34.06259,"local_government_area":"Sutherland Shire","longitude":151.12641,"postcode":"2229","suburb":"Dolans Bay, New South Wales"},
{"latitude":-33.79885,"local_government_area":"City of Ryde","longitude":151.09948,"postcode":"2112","suburb":"Denistone East, New South Wales"},
{"latitude":-33.80085,"local_government_area":"City of Ryde","longitude":151.08648,"postcode":"2114","suburb":"Denistone, New South Wales"},
{"latitude":-33.856,"local_government_area":"City of Sydney","longitude":151.207,"postcode":"2000","suburb":"Dawes Point, New South Wales"},
{"latitude":-33.74807,"local_government_area":"City of Blacktown","longitude":150.8159,"postcode":"2770","suburb":"Dharruk, New South Wales"},
{"latitude":-33.890334,"local_government_area":"City of Sydney","longitude":151.19661,"postcode":"2008","suburb":"Darlington, New South Wales"},
{"latitude":-33.80085,"local_government_area":"City of Ryde","longitude":151.08648,"postcode":"2114","suburb":"Denistone West, New South Wales"},
{"latitude":-33.8833,"local_government_area":"City of Sydney","longitude":151.225,"postcode":"2010","suburb":"Darlinghurst, New South Wales"},
{"latitude":-33.87021,"local_government_area":"Woollahra Council","longitude":151.23746,"postcode":"2027","suburb":"Darling Point, New South Wales"},
{"latitude":-33.7544,"local_government_area":"Northern Beaches Council","longitude":151.2854,"postcode":"2099","suburb":"Dee Why, New South Wales"},
{"latitude":-33.92793,"local_government_area":"Bayside Council","longitude":151.22349,"postcode":"2032","suburb":"Daceyville, New South Wales"},
{"latitude":-34.04084,"local_government_area":"Camden Council","longitude":150.76853,"postcode":"2567","suburb":"Currans Hill, New South Wales"},
{"latitude":-33.77213,"local_government_area":"Northern Beaches Council","longitude":151.28992,"postcode":"2096","suburb":"Curl Curl, New South Wales"},
{"latitude":-33.89667,"local_government_area":"","longitude":151.10944,"postcode":"2133","suburb":"Croydon Park, New South Wales"},
{"latitude":-33.7333,"local_government_area":"City of Blacktown","longitude":150.85,"postcode":"2761","suburb":"Dean Park, New South Wales"},
{"latitude":-33.82613,"local_government_area":"North Sydney Council","longitude":151.20505,"postcode":"2065","suburb":"Crows Nest, New South Wales"},
{"latitude":-34.05744,"local_government_area":"Sutherland Shire","longitude":151.15219,"postcode":"2230","suburb":"Cronulla, New South Wales"},
{"latitude":-33.74142,"local_government_area":"Northern Beaches Council","longitude":151.28227,"postcode":"2099","suburb":"Cromer, New South Wales"},
{"latitude":-33.87904,"local_government_area":"","longitude":151.11553,"postcode":"2132","suburb":"Croydon, New South Wales"},
{"latitude":-33.8335,"local_government_area":"North Sydney Council","longitude":151.2273,"postcode":"2090","suburb":"Cremorne, New South Wales"},
{"latitude":-33.84076,"local_government_area":"North Sydney Council","longitude":151.22789,"postcode":"2090","suburb":"Cremorne Point, New South Wales"},
{"latitude":-33.596617,"local_government_area":"Northern Beaches Council","longitude":151.29901,"postcode":"2108","suburb":"Currawong Beach, New South Wales"},
{"latitude":-33.72083,"local_government_area":"Penrith City Council","longitude":150.71306,"postcode":"2749","suburb":"Cranebrook, New South Wales"},
{"latitude":-33.919,"local_government_area":"City of Randwick","longitude":151.2555,"postcode":"2034","suburb":"Coogee, New South Wales"},
{"latitude":-33.7945,"local_government_area":"City of Parramatta","longitude":150.9765,"postcode":"2145","suburb":"Constitution Hill, New South Wales"},
{"latitude":-33.9825,"local_government_area":"Georges River Council","longitude":151.10028,"postcode":"2221","suburb":"Connells Point, New South Wales"},
{"latitude":-33.84416,"local_government_area":"","longitude":151.09021,"postcode":"2138","suburb":"Concord West, New South Wales"},
{"latitude":-33.59072,"local_government_area":"Hornsby Shire","longitude":151.16956,"postcode":"2081","suburb":"Cowan, New South Wales"},
{"latitude":-33.62091,"local_government_area":"Northern Beaches Council","longitude":151.20225,"postcode":"2084","suburb":"Cottage Point, New South Wales"},
{"latitude":-33.85985,"local_government_area":"City of Canada Bay","longitude":151.10191,"postcode":"2137","suburb":"Concord, New South Wales"},
{"latitude":-33.72111,"local_government_area":"City of Blacktown","longitude":150.855,"postcode":"2761","suburb":"Colebee, New South Wales"},
{"latitude":-33.78194,"local_government_area":"Penrith City Council","longitude":150.79806,"postcode":"2760","suburb":"Colyton, New South Wales"},
{"latitude":-33.73,"local_government_area":"Northern Beaches Council","longitude":151.3,"postcode":"2097","suburb":"Collaroy, New South Wales"},
{"latitude":-34.017,"local_government_area":"Camden Council","longitude":150.683,"postcode":"2570","suburb":"Cobbitty, New South Wales"},
{"latitude":-34.0045,"local_government_area":"Sutherland Shire","longitude":151.06379,"postcode":"2226","suburb":"Como, New South Wales"},
{"latitude":-33.605,"local_government_area":"Northern Beaches Council","longitude":151.299,"postcode":"2108","suburb":"Coasters Retreat, New South Wales"},
{"latitude":-33.83861,"local_government_area":"City of Parramatta","longitude":151.01722,"postcode":"2142","suburb":"Clyde, New South Wales"},
{"latitude":-33.9121,"local_government_area":"City of Randwick","longitude":151.2629,"postcode":"2031","suburb":"Clovelly, New South Wales"},
{"latitude":-33.80834,"local_government_area":"Northern Beaches Council","longitude":151.25342,"postcode":"2093","suburb":"Clontarf, New South Wales"},
{"latitude":-33.93,"local_government_area":"Canterbury-Bankstown Council","longitude":151.106,"postcode":"2206","suburb":"Clemton Park, New South Wales"},
{"latitude":-34.0444,"local_government_area":"City of Campbelltown","longitude":150.8096,"postcode":"2559","suburb":"Claymore, New South Wales"},
{"latitude":-33.925,"local_government_area":"Canterbury-Bankstown Council","longitude":151.00778,"postcode":"2200","suburb":"Condell Park, New South Wales"},
{"latitude":-33.6344,"local_government_area":"Northern Beaches Council","longitude":151.3159,"postcode":"2107","suburb":"Clareville, New South Wales"},
{"latitude":-33.779,"local_government_area":"Penrith City Council","longitude":150.753,"postcode":"2747","suburb":"Claremont Meadows, New South Wales"},
{"latitude":-33.6544,"local_government_area":"Northern Beaches Council","longitude":151.2791,"postcode":"2105","suburb":"Church Point, New South Wales"},
{"latitude":-33.89083,"local_government_area":"","longitude":151.0475,"postcode":"2190","suburb":"Chullora, New South Wales"},
{"latitude":-33.85192,"local_government_area":"City of Canada Bay","longitude":151.13605,"postcode":"2046","suburb":"Chiswick, New South Wales"},
{"latitude":-33.911,"local_government_area":"City of Liverpool","longitude":150.959,"postcode":"2170","suburb":"Chipping Norton, New South Wales"},
{"latitude":-33.8863,"local_government_area":"City of Sydney","longitude":151.1999,"postcode":"2008","suburb":"Chippendale, New South Wales"},
{"latitude":-33.969,"local_government_area":"City of Randwick","longitude":151.24,"postcode":"2036","suburb":"Chifley, New South Wales"},
{"latitude":-33.8021,"local_government_area":"City of Willoughby,City of Ryde","longitude":151.16301,"postcode":"2067","suburb":"Chatswood West, New South Wales"},
{"latitude":-33.80077,"local_government_area":"City of Willoughby","longitude":151.1796,"postcode":"2067","suburb":"Chatswood, New South Wales"},
{"latitude":-33.7251,"local_government_area":"Hornsby Shire","longitude":151.04931,"postcode":"2126","suburb":"Cherrybrook, New South Wales"},
{"latitude":-33.75839,"local_government_area":"Hornsby Shire","longitude":151.07569,"postcode":"2119","suburb":"Cheltenham, New South Wales"},
{"latitude":-33.61167,"local_government_area":"City of Hawkesbury","longitude":150.78694,"postcode":"","suburb":"Clarendon, New South Wales"},
{"latitude":-33.86806,"local_government_area":"City of Sydney","longitude":151.21222,"postcode":"2000","suburb":"Sydney CBD"},
{"latitude":-33.89028,"local_government_area":"City of Liverpool","longitude":150.85111,"postcode":"2171","suburb":"Cecil Hills, New South Wales"},
{"latitude":-33.9833,"local_government_area":"Camden","longitude":150.76,"postcode":"2557","suburb":"Catherine Field, New South Wales"},
{"latitude":-34.083,"local_government_area":"","longitude":150.683,"postcode":"2570","suburb":"Cawdor, New South Wales"},
{"latitude":-33.55611,"local_government_area":"","longitude":150.91194,"postcode":"2756","suburb":"Cattai, New South Wales"},
{"latitude":-33.95193,"local_government_area":"City of Liverpool","longitude":150.90538,"postcode":"2170","suburb":"Casula, New South Wales"},
{"latitude":-33.87297,"local_government_area":"","longitude":150.83823,"postcode":"2178","suburb":"Cecil Park, New South Wales"},
{"latitude":-33.87833,"local_government_area":"","longitude":151.00444,"postcode":"2162","suburb":"Chester Hill, New South Wales"},
{"latitude":-33.67194,"local_government_area":"City of Penrith","longitude":150.67833,"postcode":"2749","suburb":"Castlereagh, New South Wales"},
{"latitude":-33.80137,"local_government_area":"City of Willoughby","longitude":151.22007,"postcode":"2068","suburb":"Castlecrag, New South Wales"},
{"latitude":-33.72917,"local_government_area":"The Hills Shire,Hornsby Shire","longitude":151.00389,"postcode":"2154","suburb":"Castle Hill, New South Wales"},
{"latitude":-33.78464,"local_government_area":"City of Willoughby","longitude":151.20642,"postcode":"2069","suburb":"Castle Cove, New South Wales"},
{"latitude":-33.928,"local_government_area":"City of Liverpool","longitude":150.8869,"postcode":"2168","suburb":"Cartwright, New South Wales"},
{"latitude":-33.98718,"local_government_area":"Georges River Council","longitude":151.11889,"postcode":"2221","suburb":"Carss Park, New South Wales"},
{"latitude":-33.88605,"local_government_area":"City of Fairfield","longitude":150.96442,"postcode":"2163","suburb":"Carramar, New South Wales"},
{"latitude":-33.90111,"local_government_area":"City of Sydney,City of Randwick","longitude":151.23028,"postcode":"2021","suburb":"Centennial Park, New South Wales"},
{"latitude":-33.97117,"local_government_area":"","longitude":151.12439,"postcode":"2218","suburb":"Carlton, New South Wales"},
{"latitude":-33.935985,"local_government_area":"City of Liverpool","longitude":150.839318,"postcode":"2171","suburb":"Carnes Hill, New South Wales"},
{"latitude":-34.0452,"local_government_area":"Sutherland Shire","longitude":151.1218,"postcode":"2229","suburb":"Caringbah South, New South Wales"},
{"latitude":-34.0452,"local_government_area":"Sutherland Shire","longitude":151.1218,"postcode":"2229","suburb":"Caringbah"},
{"latitude":-33.9126,"local_government_area":"Canterbury-Bankstown Council","longitude":151.118,"postcode":"2193","suburb":"Canterbury, New South Wales"},
{"latitude":-33.50824,"local_government_area":"Hornsby Shire,The Hills Shire","longitude":151.06178,"postcode":"2157","suburb":"Canoelands, New South Wales"},
{"latitude":-33.77694,"local_government_area":"City of Parramatta","longitude":151.04806,"postcode":"2118","suburb":"Carlingford, New South Wales"},
{"latitude":-33.91413,"local_government_area":"City of Liverpool","longitude":150.88247,"postcode":"2168","suburb":"Busby, New South Wales"},
{"latitude":-33.8902,"local_government_area":"Burwood Council","longitude":151.1052,"postcode":"2136","suburb":"Burwood Heights, New South Wales"},
{"latitude":-34.06996,"local_government_area":"Sutherland Shire","longitude":151.13664,"postcode":"2230","suburb":"Burraneer, New South Wales"},
{"latitude":-33.7799909,"local_government_area":"City of Blacktown","longitude":150.8551412,"postcode":"","suburb":"Bungarribee"},
{"latitude":-33.7653,"local_government_area":"Northern Beaches Council","longitude":151.27041,"postcode":"2100","suburb":"Brookvale, New South Wales"},
{"latitude":-33.8772,"local_government_area":"Burwood Council","longitude":151.1049,"postcode":"2134","suburb":"Burwood, New South Wales"},
{"latitude":-34.0880611,"local_government_area":"Sutherland Shire","longitude":151.1540611,"postcode":"2230","suburb":"Bundeena, New South Wales"},
{"latitude":-33.54833,"local_government_area":"Hornsby Shire","longitude":151.21778,"postcode":"2083","suburb":"Brooklyn, New South Wales"},
{"latitude":-33.88639,"local_government_area":"City of Fairfield","longitude":150.94611,"postcode":"2166","suburb":"Canley Vale, New South Wales"},
{"latitude":-33.90532,"local_government_area":"Waverley","longitude":151.26069,"postcode":"2024","suburb":"Bronte, New South Wales"},
{"latitude":-33.92178,"local_government_area":"","longitude":150.73234,"postcode":"2556","suburb":"Bringelly, New South Wales"},
{"latitude":-33.65,"local_government_area":"The Hills Shire","longitude":150.883,"postcode":"2765","suburb":"Box Hill, New South Wales"},
{"latitude":-33.844,"local_government_area":"City of Canada Bay","longitude":151.1129,"postcode":"2137","suburb":"Breakfast Point, New South Wales"},
{"latitude":-34.08734,"local_government_area":"City of Campbelltown","longitude":150.81626,"postcode":"2560","suburb":"Bradbury, New South Wales"},
{"latitude":-34.01861,"local_government_area":"City of Campbelltown","longitude":150.83806,"postcode":"2566","suburb":"Bow Bowing, New South Wales"},
{"latitude":-33.94513,"local_government_area":"Bayside Council","longitude":151.19934,"postcode":"2019","suburb":"Botany, New South Wales"},
{"latitude":-33.86341,"local_government_area":"City of Fairfield","longitude":150.88364,"postcode":"2176","suburb":"Bossley Park, New South Wales"},
{"latitude":-33.89111,"local_government_area":"City of Fairfield","longitude":150.87194,"postcode":"2177","suburb":"Bonnyrigg Heights, New South Wales"},
{"latitude":-33.89812,"local_government_area":"City of Fairfield","longitude":150.89006,"postcode":"2177","suburb":"Bonnyrigg, New South Wales"},
{"latitude":-34.01025,"local_government_area":"Sutherland Shire","longitude":151.05238,"postcode":"2226","suburb":"Bonnet Bay, New South Wales"},
{"latitude":-33.89145,"local_government_area":"Waverley Council","longitude":151.2497,"postcode":"2022","suburb":"Bondi Junction, New South Wales"},
{"latitude":-33.89195,"local_government_area":"Waverley Council","longitude":151.26099,"postcode":"2026","suburb":"Bondi, New South Wales"},
{"latitude":-33.89102,"local_government_area":"Waverley Council","longitude":151.277726,"postcode":"2026","suburb":"Bondi Beach, New South Wales"},
{"latitude":-33.63833,"local_government_area":"City of Hawkesbury","longitude":150.79806,"postcode":"2756","suburb":"Bligh Park, New South Wales"},
{"latitude":-33.959,"local_government_area":"Bayside Council","longitude":151.157,"postcode":"2216","suburb":"Brighton-le-Sands, New South Wales"},
{"latitude":-33.98972,"local_government_area":"Georges River Council","longitude":151.10972,"postcode":"2221","suburb":"Blakehurst, New South Wales"},
{"latitude":-34.04881,"local_government_area":"City of Campbelltown","longitude":150.78734,"postcode":"2559","suburb":"Blairmount, New South Wales"},
{"latitude":-34.06306,"local_government_area":"City of Campbelltown","longitude":150.8,"postcode":"2560","suburb":"Blair Athol, New South Wales"},
{"latitude":-33.73934,"local_government_area":"City of Blacktown","longitude":150.81266,"postcode":"2770","suburb":"Blackett, New South Wales"},
{"latitude":-33.77111,"local_government_area":"City of Blacktown","longitude":150.90639,"postcode":"2148","suburb":"Blacktown, New South Wales"},
{"latitude":-33.633,"local_government_area":"Northern Beaches Council","longitude":151.317,"postcode":"2107","suburb":"Bilgola Plateau, New South Wales"},
{"latitude":-33.85275,"local_government_area":"Inner West Council","longitude":151.18024,"postcode":"2041","suburb":"Birchgrove, New South Wales"},
{"latitude":-33.64565,"local_government_area":"Northern Beaches Council","longitude":151.31782,"postcode":"","suburb":"Bilgola Beach, New South Wales"},
{"latitude":-33.73934,"local_government_area":"City of Blacktown","longitude":150.81266,"postcode":"2770","suburb":"Bidwill, New South Wales"},
{"latitude":-34.08,"local_government_area":"Camden Council","longitude":150.665,"postcode":"2570","suburb":"Bickley Vale, New South Wales"},
{"latitude":-33.94167,"local_government_area":"Bayside Council","longitude":151.11139,"postcode":"2207","suburb":"Bexley North, New South Wales"},
{"latitude":-33.95667,"local_government_area":"Bayside Council","longitude":151.12611,"postcode":"2207","suburb":"Bexley, New South Wales"},
{"latitude":-33.95139,"local_government_area":"","longitude":151.07944,"postcode":"2209","suburb":"Beverly Hills, New South Wales"},
{"latitude":-33.97897,"local_government_area":"Georges River Council","longitude":151.1285,"postcode":"2217","suburb":"Beverley Park, New South Wales"},
{"latitude":-33.60086,"local_government_area":"Hornsby Shire","longitude":151.12626,"postcode":"2082","suburb":"Berowra Waters, New South Wales"},
{"latitude":-33.61334,"local_government_area":"Hornsby Shire","longitude":151.138,"postcode":"2082, 2081","suburb":"Berowra Heights, New South Wales"},
{"latitude":-33.89306,"local_government_area":"Canterbury-Bankstown Council","longitude":151.02306,"postcode":"2143","suburb":"Birrong, New South Wales"},
{"latitude":-33.87487,"local_government_area":"Cumberland Council","longitude":151.03073,"postcode":"2141","suburb":"Berala, New South Wales"},
{"latitude":-33.73,"local_government_area":"Northern Beaches Council","longitude":151.22,"postcode":"2085","suburb":"Belrose, New South Wales"},
{"latitude":-33.9175,"local_government_area":"Canterbury-Bankstown Council","longitude":151.08778,"postcode":"2192","suburb":"Belmore, New South Wales"},
{"latitude":-33.62556,"local_government_area":"Hornsby Shire","longitude":151.14667,"postcode":"2081, 2082","suburb":"Berowra, New South Wales"},
{"latitude":-33.88101,"local_government_area":"Municipality of Woollahra","longitude":151.25253,"postcode":"2023","suburb":"Bellevue Hill, New South Wales"},
{"latitude":-33.7,"local_government_area":"The Hills Shire","longitude":150.941,"postcode":"2155","suburb":"Beaumont Hills, New South Wales"},
{"latitude":-33.742,"local_government_area":"The Hills Shire","longitude":150.955,"postcode":"2153","suburb":"Bella Vista, New South Wales"},
{"latitude":-33.905,"local_government_area":"","longitude":151.08389,"postcode":"2191","suburb":"Belfield, New South Wales"},
{"latitude":-33.7518,"local_government_area":"","longitude":151.0633,"postcode":"2119","suburb":"Beecroft, New South Wales"},
{"latitude":-33.57694,"local_government_area":"Hornsby Shire","longitude":151.12806,"postcode":"","suburb":"Berowra Creek, New South Wales"},
{"latitude":-33.61547,"local_government_area":"Hornsby Shire","longitude":151.09811,"postcode":"2159","suburb":"Berrilee, New South Wales"},
{"latitude":-33.91096,"local_government_area":"City of Sydney","longitude":151.19995,"postcode":"2015","suburb":"Beaconsfield, New South Wales"},
{"latitude":-33.7522,"local_government_area":"Northern Beaches Council","longitude":151.256,"postcode":"2100","suburb":"Beacon Hill, New South Wales"},
{"latitude":-33.75944,"local_government_area":"","longitude":150.99028,"postcode":"2153","suburb":"Baulkham Hills, New South Wales"},
{"latitude":-33.90083,"local_government_area":"Canterbury-Bankstown Council","longitude":150.995,"postcode":"2197","suburb":"Bass Hill, New South Wales"},
{"latitude":-33.72136,"local_government_area":"Ku-ring-gai Council","longitude":151.16844,"postcode":"2075","suburb":"Barra Brui, New South Wales"},
{"latitude":-33.937,"local_government_area":"Bayside Council","longitude":151.133,"postcode":"2207","suburb":"Bardwell Valley, New South Wales"},
{"latitude":-33.6886,"local_government_area":"City of Penrith","longitude":150.78165,"postcode":"2765","suburb":"Berkshire Park, New South Wales"},
{"latitude":-33.93539,"local_government_area":"Bayside Council","longitude":151.12541,"postcode":"2207","suburb":"Bardwell Park, New South Wales"},
{"latitude":-33.977,"local_government_area":"","longitude":150.862,"postcode":"2565","suburb":"Bardia, New South Wales"},
{"latitude":-34.01908,"local_government_area":"Sutherland Shire","longitude":151.02735,"postcode":"2234","suburb":"Bangor, New South Wales"},
{"latitude":-33.95731,"local_government_area":"Bayside Council","longitude":151.20699,"postcode":"2019","suburb":"Banksmeadow, New South Wales"},
{"latitude":-33.94776,"local_government_area":"Bayside Council","longitude":151.14806,"postcode":"2216","suburb":"Banksia, New South Wales"},
{"latitude":-33.8611,"local_government_area":"City of Sydney","longitude":151.203,"postcode":"2000","suburb":"Barangaroo, New South Wales"},
{"latitude":-33.91806,"local_government_area":"Canterbury-Bankstown Council","longitude":151.035,"postcode":"2200","suburb":"Bankstown, New South Wales"},
{"latitude":-33.85811,"local_government_area":"Inner West Council","longitude":151.19017,"postcode":"2041","suburb":"Balmain East, New South Wales"},
{"latitude":-33.79645,"local_government_area":"Northern Beaches Council","longitude":151.25854,"postcode":"2093","suburb":"Balgowlah, New South Wales"},
{"latitude":-33.87972,"local_government_area":"City of Liverpool","longitude":150.75222,"postcode":"2555","suburb":"Badgerys Creek, New South Wales"},
{"latitude":-33.85895,"local_government_area":"Inner West Council","longitude":151.17906,"postcode":"2041","suburb":"Balmain, New South Wales"},
{"latitude":-33.63358,"local_government_area":"Northern Beaches Council","longitude":151.33257,"postcode":"2107","suburb":"Avalon Beach, New South Wales"},
{"latitude":-34.032,"local_government_area":"Sutherland Shire","longitude":151.01,"postcode":"2234","suburb":"Barden Ridge, New South Wales"},
{"latitude":-33.689,"local_government_area":"Hornsby Shire","longitude":151.105,"postcode":"2077","suburb":"Asquith, New South Wales"},
{"latitude":-33.92165,"local_government_area":"City of Liverpool","longitude":150.89541,"postcode":"2168","suburb":"Ashcroft, New South Wales"},
{"latitude":-33.86563,"local_government_area":"Cumberland Council","longitude":151.0236,"postcode":"2144","suburb":"Auburn, New South Wales"},
{"latitude":-33.8889,"local_government_area":"Inner West Council","longitude":151.1249,"postcode":"2131","suburb":"Ashfield, New South Wales"},
{"latitude":-33.90306,"local_government_area":"","longitude":151.11639,"postcode":"2193","suburb":"Ashbury, New South Wales"},
{"latitude":-33.8064,"local_government_area":"Northern Beaches Council","longitude":151.2568,"postcode":"2093","suburb":"Balgowlah Heights, New South Wales"},
{"latitude":-33.925,"local_government_area":"","longitude":150.98833,"postcode":"","suburb":"Bankstown Airport, New South Wales"},
{"latitude":-33.93111,"local_government_area":"City of Liverpool","longitude":150.79361,"postcode":"2179","suburb":"Austral, New South Wales"},
{"latitude":-33.79,"local_government_area":"City of Blacktown","longitude":150.876,"postcode":"2148","suburb":"Arndell Park, New South Wales"},
{"latitude":-33.9333,"local_government_area":"Bayside Council","longitude":151.15,"postcode":"2205","suburb":"Arncliffe, New South Wales"},
{"latitude":-33.65255,"local_government_area":"The Hills Shire","longitude":150.94096,"postcode":"2156","suburb":"Annangrove, New South Wales"},
{"latitude":-33.80894,"local_government_area":"City of Willoughby","longitude":151.18292,"postcode":"2064","suburb":"Artarmon, New South Wales"},
{"latitude":-33.62429,"local_government_area":"Hornsby Shire","longitude":151.04455,"postcode":"2159","suburb":"Arcadia, New South Wales"},
{"latitude":-33.9749,"local_government_area":"Georges River Council","longitude":151.1167,"postcode":"2218","suburb":"Allawah, New South Wales"},
{"latitude":-33.881,"local_government_area":"Inner West Council","longitude":151.171,"postcode":"2038","suburb":"Annandale, New South Wales"},
{"latitude":-34.08333,"local_government_area":"City of Campbelltown","longitude":150.80067,"postcode":"2560","suburb":"Ambarvale, New South Wales"},
{"latitude":-33.90166,"local_government_area":"City of Sydney","longitude":151.20007,"postcode":"2015","suburb":"Alexandria, New South Wales"},
{"latitude":-34.0916,"local_government_area":"City of Campbelltown","longitude":150.8249,"postcode":"2560","suburb":"Airds, New South Wales"},
{"latitude":-33.61528,"local_government_area":"","longitude":150.71611,"postcode":"2753","suburb":"Agnes Banks, New South Wales"},
{"latitude":-33.7322,"local_government_area":"City of Blacktown","longitude":150.917,"postcode":"2763","suburb":"Acacia Gardens, New South Wales"},
{"latitude":-33.85215,"local_government_area":"City of Canada Bay","longitude":151.12726,"postcode":"2046","suburb":"Abbotsford, New South Wales"},
{"latitude":-33.9848,"local_government_area":"Sutherland Shire","longitude":151.02142,"postcode":"2234","suburb":"Alfords Point, New South Wales"}
]