suburb,latitude,longitude,postcode,local_government_area
"Bellfield, Victoria",-37.754,145.045,3081,City of Banyule
"Lang Lang, Victoria",-38.267,145.567,3984,Shire of Cardinia
"Koo Wee Rup North, Victoria",-38.148,145.53,3891,Shire of Cardinia
"Monomeith, Victoria",-38.206,145.554,3984,Shire of Cardinia
"Lang Lang East, Victoria",-38.25,145.65,3894,Shire of Cardinia
"Maryknoll, Victoria",-38.032,145.602,3812,Shire of Cardinia
"Koo Wee Rup, Victoria",-38.198,145.489,3981,Shire of Cardinia
"Mount Burnett, Victoria",-37.983,145.5,3781,Shire of Cardinia
"Modella, Victoria",-38.183,145.717,3816,Shire of Cardinia
"Longwarry, Victoria",-38.1,145.76667,3816,Shire of Cardinia
"Menzies Creek, Victoria",-37.931,145.398,3159,Shire of Cardinia
"Heath Hill, Victoria",-38.244,145.692,3981,Shire of Cardinia
"Iona, Victoria",-38.15,145.683,3815,Shire of Cardinia
"Guys Hill, Victoria",-38.017,145.386,3807,Shire of Cardinia
"Gembrook, Victoria",-37.95,145.541,3783,Shire of Cardinia
"Garfield North, Victoria",-38.05,145.683,3814,Shire of Cardinia
"Yering, Victoria",-37.706,145.382,3770,Shire of Yarra Ranges
"Yellingbo, Victoria",-37.81,145.51,3139,Shire of Yarra Ranges
"Yarra Junction, Victoria",-37.779,145.606,3797,Shire of Yarra Ranges
"Yarra Glen, Victoria",-37.64889,145.37194,3775,Shire of Yarra Ranges
"Wandin North, Victoria",-37.769,145.411,3139,Shire of Yarra Ranges
"Wandin East, Victoria",-37.811,145.453,3139,Shire of Yarra Ranges
"Tremont, Victoria",-37.88,145.324,3785,Shire of Yarra Ranges
"Woori Yallock, Victoria",-37.778,145.528,3139,Shire of Yarra Ranges
"Wesburn, Victoria",-37.767,145.647,3799,Shire of Yarra Ranges
"Warburton East, Victoria",-37.733,145.733,3799,Shire of Yarra Ranges
"Warburton, Victoria",-37.755,145.697,3799,Shire of Yarra Ranges
"Toorongo, Victoria",-37.783,146.117,3833,Shire of Yarra Ranges
"Tarrawarra, Victoria",-37.657,145.424,3775,Shire of Yarra Ranges
"Silvan, Victoria",-37.824,145.421,3795,Shire of Yarra Ranges
"Sherbrooke, Victoria",-37.885,145.36,3789,Shire of Yarra Ranges
"Seville East, Victoria",-37.774,145.491,3139,Shire of Yarra Ranges
"Three Bridges, Victoria",-37.833,145.683,3797,Shire of Yarra Ranges
"The Patch, Victoria",-37.894,145.393,3792,Shire of Yarra Ranges
"Steels Creek, Victoria",-37.594,145.374,3775,Shire of Yarra Ranges
"Seville, Victoria",-37.777,145.461,3139,Shire of Yarra Ranges
"Reefton, Victoria",-37.65,145.867,3799,Shire of Yarra Ranges
"Sassafras, Victoria",-37.87,145.35389,3787,Shire of Yarra Ranges
"Powelltown, Victoria",-37.865,145.753,3797,Shire of Yarra Ranges
"Olinda, Victoria",-37.85599,145.364357,3788,Shire of Yarra Ranges
"Narre Warren East, Victoria",-37.961,145.367,3804,Shire of Yarra Ranges
"Mount Toolebewong, Victoria",-37.702,145.572,3777,Shire of Yarra Ranges
"Mount Dandenong, Victoria",-37.83111,145.36,3767,Shire of Yarra Ranges
"Monbulk, Victoria",-37.878,145.411,3793,Shire of Yarra Ranges
"Millgrove, Victoria",-37.753,145.652,3799,Shire of Yarra Ranges
"McMahons Creek, Victoria",-37.7,145.833,3799,Shire of Yarra Ranges
"Macclesfield, Victoria",-37.883,145.477,3782,Shire of Yarra Ranges
"Launching Place, Victoria",-37.774,145.588,3139,Shire of Yarra Ranges
"Kalorama, Victoria",-37.818,145.366,3766,Shire of Yarra Ranges
"Matlock, Victoria",-37.6,146.217,3723,Shire of Yarra Ranges
"Kallista, Victoria",-37.883,145.372,3791,Shire of Yarra Ranges
"Hoddles Creek, Victoria",-37.833,145.583,3139,Shire of Yarra Ranges
"Gruyere, Victoria",-37.734,145.45,3770,Shire of Yarra Ranges
"Gladysdale, Victoria",-37.817,145.65,3797,Shire of Yarra Ranges
"Gilderoy, Victoria",-37.85,145.717,3797,Shire of Yarra Ranges
"Fernshaw, Victoria",-37.633,145.717,3778,Shire of Yarra Ranges
"Don Valley, Victoria",-37.76139,145.58444,3139,Shire of Yarra Ranges
"Dixons Creek, Victoria",-37.6,145.417,3775,Shire of Yarra Ranges
"Healesville, Victoria",-37.65611,145.51389,3777,Shire of Yarra Ranges
"Ferny Creek, Victoria",-37.878,145.335,3786,Shire of Yarra Ranges
"Coldstream, Victoria",-37.734,145.383,3770,Shire of Yarra Ranges
"Beenak, Victoria",-37.85,145.7,3139,Shire of Yarra Ranges
"Badger Creek, Victoria",-37.685,145.538,3777,Shire of Yarra Ranges
"Upwey, Victoria",-37.903,145.33,3158,Shire of Yarra Ranges
"Chum Creek, Victoria",-37.606,145.488,3777,Shire of Yarra Ranges
"Cambarville, Victoria",-37.567,145.9,3779,Shire of Yarra Ranges
"Tecoma, Victoria",-37.906,145.344,3160,Shire of Yarra Ranges
"Big Pats Creek, Victoria",-37.767,145.767,3799,Shire of Yarra Ranges
"Selby, Victoria",-37.914,145.369,3159,Shire of Yarra Ranges
"Mount Evelyn, Victoria",-37.783,145.385,3796,Shire of Yarra Ranges
"Montrose, Victoria",-37.81,145.343,3765,Shire of Yarra Ranges
"Lilydale, Victoria",-37.758,145.35,3140,Shire of Yarra Ranges
"Kilsyth, Victoria",-37.802,145.316,3137,Shire of Yarra Ranges
"Chirnside Park, Victoria",-37.754,145.327,3116,Shire of Yarra Ranges
"Belgrave South, Victoria",-37.94,145.356,3160,Shire of Yarra Ranges
"Mooroolbark, Victoria",-37.785,145.315,3138,Shire of Yarra Ranges
"Belgrave Heights, Victoria",-37.923,145.34,3160,Shire of Yarra Ranges
"Belgrave, Victoria",-37.912067,145.3558,3160,Shire of Yarra Ranges
"Clifton Hill, Victoria",-37.789,144.999,3068,City of Yarra
"Princes Hill, Victoria",-37.784,144.966,3054,City of Yarra
"Fitzroy North, Victoria",-37.784,144.986,3068,City of Yarra
"Cremorne, Victoria",-37.83,144.993,3121,City of Yarra
"Collingwood, Victoria",-37.8019,144.98815,3066,City of Yarra
"Richmond, Victoria",-37.823,144.998,3121,City of Yarra
"Fitzroy, Victoria",-37.80111,144.97889,3065,City of Yarra
"Burnley, Victoria",-37.825,145.012,3121,City of Yarra
"Quandong, Victoria",-37.845,144.522,3340,City of Wyndham
"Mambourin, Victoria",-37.912,144.549,3024,City of Wyndham
"Williams Landing, Victoria",-37.858,144.739,3027,City of Wyndham
"Little River, Victoria",-37.933,144.5,3211,City of Wyndham
"Cocoroc, Victoria",-37.967,144.622,3030,City of Wyndham
"Wyndham Vale, Victoria",-37.89,144.63,3024,City of Wyndham
"Abbotsford, Victoria",-37.803,145.002,3067,City of Yarra
"Werribee South, Victoria",-37.937,144.697,3030,City of Wyndham
"Manor Lakes, Victoria",-37.873,144.582,3024,City of Wyndham
"Tarneit, Victoria",-37.833,144.672,3029,City of Wyndham
"Point Cook, Victoria",-37.909,144.752,3030,City of Wyndham
"Laverton North, Victoria",-37.83,144.785,3026,City of Wyndham
"Hoppers Crossing, Victoria",-37.869,144.693,3029,City of Wyndham
"Woodstock, Victoria",-37.544,145.056,3755,City of Whittlesea
"Werribee, Victoria",-37.9,144.664,3030,City of Wyndham
"Wollert, Victoria",-37.597,145.033,3750,City of Whittlesea
"Whittlesea, Victoria",-37.51389,145.11389,3757,City of Whittlesea
"Humevale, Victoria",-37.497,145.175,3757,City of Whittlesea
"Eden Park, Victoria",-37.489,145.07,3757,City of Whittlesea
"Beveridge, Victoria",-37.483,144.983,3753,City of Whittlesea
"Thomastown, Victoria",-37.682,145.014,3074,City of Whittlesea
"South Morang, Victoria",-37.633,145.083,3752,City of Whittlesea
"Mill Park, Victoria",-37.671,145.062,3082,City of Whittlesea
"Mernda, Victoria",-37.609,145.093,3754,City of Whittlesea
"Lalor, Victoria",-37.667,145.02,3075,City of Whittlesea
"Forest Hill, Victoria",-37.842,145.172,3131,City of Whitehorse
"Vermont South, Victoria",-37.851,145.183,3133,City of Whitehorse
"Vermont, Victoria",-37.838,145.198,3133,City of Whitehorse
"Mitcham, Victoria",-37.818,145.197,3132,City of Whitehorse
"Burwood East, Victoria",-37.852,145.15,3151,City of Whitehorse
"Epping, Victoria",-37.638,145.01,3076,City of Whittlesea
"Box Hill South, Victoria",-37.836,145.124,3128,City of Whitehorse
"Box Hill North, Victoria",-37.807,145.12,3129,City of Whitehorse
"Windsor, Victoria",-37.854,144.988,3181,City of Stonnington
"Blackburn South, Victoria",-37.838,145.144,3130,City of Whitehorse
"Blackburn North, Victoria",-37.81,145.152,3130,City of Whitehorse
"Blackburn, Victoria",-37.826,145.151,3130,City of Whitehorse
"Box Hill, Victoria",-37.8215,145.126,3128,City of Whitehorse
"Toorak, Victoria",-37.841,145.018,3142,City of Stonnington
"Malvern East, Victoria",-37.878,145.06,3145,City of Stonnington
"Prahran, Victoria",-37.852,144.998,3181,City of Stonnington
"Kooyong, Victoria",-37.84194,145.035,3144,City of Stonnington
"Malvern, Victoria",-37.857,145.036,3144,City of Stonnington
"Armadale, Victoria",-37.857,145.021,3143,City of Stonnington
"South Melbourne, Victoria",-37.835,144.96,3205,City of Port Phillip
"St Kilda West, Victoria",-37.8604,144.9732,3182,City of Port Phillip
"Ripponlea, Victoria",-37.88,144.999,3185,City of Port Phillip
"Middle Park, Victoria",-37.85194,144.96306,3206,City of Port Phillip
"St Kilda, Victoria",-37.864,144.982,3182,City of Port Phillip
"Elwood, Victoria",-37.884,144.986,3184,City of Port Phillip
"Balaclava, Victoria",-37.873,144.993,3183,City of Port Phillip
"Watsons Creek, Victoria",-37.67,145.258,3097,Shire of Nillumbik
"Toolangi, Victoria",-37.533,145.467,3777,Shire of Nillumbik
"Yarrambat, Victoria",-37.64,145.133,3091,Shire of Nillumbik
"Yan Yean, Victoria",-37.571,145.108,3755,Shire of Nillumbik
"Strathewen, Victoria",-37.55,145.267,3099,Shire of Nillumbik
"Albert Park, Victoria",-37.842,144.95,3206,City of Port Phillip
"Smiths Gully, Victoria",-37.619,145.256,3760,Shire of Nillumbik
"St Andrews, Victoria",-37.594,145.269,3761,Shire of Nillumbik
"Plenty, Victoria",-37.669,145.117,3090,Shire of Nillumbik
"Panton Hill, Victoria",-37.643,145.239,3759,Shire of Nillumbik
"Kangaroo Ground, Victoria",-37.686,145.216,3097,Shire of Nillumbik
"Nutfield, Victoria",-37.603,145.181,3099,Shire of Nillumbik
"Kinglake West, Victoria",-37.467,145.233,3778,Shire of Nillumbik
"Kinglake, Victoria",-37.53278,145.34111,3763,Shire of Nillumbik
"Doreen, Victoria",-37.605,145.146,3754,Shire of Nillumbik
"Bend of Islands, Victoria",-37.704,145.267,3097,Shire of Nillumbik
"Wattle Glen, Victoria",-37.663,145.183,3096,Shire of Nillumbik
"Research, Victoria",-37.707,145.18,3095,Shire of Nillumbik
"North Warrandyte, Victoria",-37.726,145.216,3113,Shire of Nillumbik
"Cottles Bridge, Victoria",-37.62194,145.21889,3099,Shire of Nillumbik
"Hurstbridge, Victoria",-37.63889,145.195,3099,Shire of Nillumbik
"Diamond Creek, Victoria",-37.671,145.155,3089,Shire of Nillumbik
"Christmas Hills, Victoria",-37.64889,145.28611,3775,Shire of Nillumbik
"Shoreham, Victoria",-38.427,145.05,3916,Shire of Mornington Peninsula
"Red Hill South, Victoria",-38.384,145.024,3937,Shire of Mornington Peninsula
"Red Hill, Victoria",-38.355,145.016,3937,Shire of Mornington Peninsula
"Point Leo, Victoria",-38.421,145.075,3916,Shire of Mornington Peninsula
"Moorooduc, Victoria",-38.247,145.105,3933,Shire of Mornington Peninsula
"Merricks North, Victoria",-38.354,145.075,3926,Shire of Mornington Peninsula
"Tuerong, Victoria",-38.3,145.105,3915,Shire of Mornington Peninsula
"Somers, Victoria",-38.393,145.163,3927,Shire of Mornington Peninsula
"Merricks, Victoria",-38.39,145.089,3916,Shire of Mornington Peninsula
"Boneo, Victoria",-38.413,144.888,3939,Shire of Mornington Peninsula
"Merricks Beach, Victoria",-38.398,145.106,3926,Shire of Mornington Peninsula
"Main Ridge, Victoria",-38.402,144.972,3928,Shire of Mornington Peninsula
"HMAS Cerberus, Victoria",-38.367,145.187,3920,Shire of Mornington Peninsula
"Flinders, Victoria",-38.474,145.022,3929,Shire of Mornington Peninsula
"Fingal, Victoria",-38.42111,144.86111,3939,Shire of Mornington Peninsula
"Cape Schanck, Victoria",-38.461,144.905,3939,Shire of Mornington Peninsula
"Baxter, Victoria",-38.196,145.157,3911,Shire of Mornington Peninsula
"Tyabb, Victoria",-38.259,145.189,3913,Shire of Mornington Peninsula
"Somerville, Victoria",-38.226,145.177,3912,Shire of Mornington Peninsula
"Hastings, Victoria",-38.306,145.189,3915,Shire of Mornington Peninsula
"Crib Point, Victoria",-38.363,145.202,3919,Shire of Mornington Peninsula
"Balnarring Beach, Victoria",-38.359,145.136,3926,Shire of Mornington Peninsula
"Balnarring, Victoria",-38.371,145.118,3926,Shire of Mornington Peninsula
"Arthurs Seat, Victoria",-38.352,144.953,3936,Shire of Mornington Peninsula
"Tootgarook, Victoria",-38.374,144.849,3941,Shire of Mornington Peninsula
"Sorrento, Victoria",-38.33889,144.74083,3943,Shire of Mornington Peninsula
"St Andrews Beach, Victoria",-38.419,144.83,3941,Shire of Mornington Peninsula
"Safety Beach, Victoria",-38.322,144.986,3936,Shire of Mornington Peninsula
"Rye, Victoria",-38.377,144.838,3941,Shire of Mornington Peninsula
"Rosebud, Victoria",-38.356,144.918,3939,Shire of Mornington Peninsula
"Bittern, Victoria",-38.339,145.175,3918,Shire of Mornington Peninsula
"Portsea, Victoria",-38.32,144.713,3944,Shire of Mornington Peninsula
"Mount Martha, Victoria",-38.267,145.018,3934,Shire of Mornington Peninsula
"Mount Eliza, Victoria",-38.189,145.092,3930,Shire of Mornington Peninsula
"Mornington, Victoria",-38.228,145.062,3931,Shire of Mornington Peninsula
"McCrae, Victoria",-38.351,144.922,3938,Shire of Mornington Peninsula
"Dromana, Victoria",-38.338,144.965,3936,Shire of Mornington Peninsula
"Capel Sound, Victoria",-38.377,144.872,3940,Shire of Mornington Peninsula
"Blairgowrie, Victoria",-38.36,144.769,3942,Shire of Mornington Peninsula
"Pascoe Vale South, Victoria",-37.7431,144.9377,3044,City of Moreland
"Pascoe Vale, Victoria",-37.727,144.942,3044,City of Moreland
"Oak Park, Victoria",-37.718,144.919,3046,City of Moreland
"Hadfield, Victoria",-37.71,144.95,3046,City of Moreland
"Gowanbrae, Victoria",-37.702,144.899,3043,City of Moreland
"Glenroy, Victoria",-37.706,144.924,3046,City of Moreland
"Fawkner, Victoria",-37.707,144.968,3060,City of Moreland
"Coburg North, Victoria",-37.726,144.96,3058,City of Moreland
"Coburg, Victoria",-37.7438,144.9645,3058,City of Moreland
"Brunswick West, Victoria",-37.761,144.943,3055,City of Moreland
"Brunswick East, Victoria",-37.776,144.974,3057,City of Moreland
"Travancore, Victoria",-37.778,144.935,3032,City of Moonee Valley
"Strathmore Heights, Victoria",-37.713,144.897,3041,City of Moonee Valley
"Strathmore, Victoria",-37.734,144.921,3041,City of Moonee Valley
"Niddrie, Victoria",-37.745,144.886,3042,City of Moonee Valley
"Moonee Ponds, Victoria",-37.765,144.92,3039,City of Moonee Valley
"Brunswick, Victoria",-37.7667,144.9628,3056,City of Moreland
"Essendon West, Victoria",-37.755,144.883,3040,City of Moonee Valley
"Essendon North, Victoria",-37.734,144.921,3041,City of Moonee Valley
"Aberfeldie, Victoria",-37.762,144.901,3040,City of Moonee Valley
"Essendon Fields, Victoria",-37.728,144.9,3041,City of Moonee Valley
"Essendon, Victoria",-37.749,144.912,3040,City of Moonee Valley
"Avondale Heights, Victoria",-37.762,144.863,3034,City of Moonee Valley
"Ascot Vale, Victoria",-37.779,144.919,3032,City of Moonee Valley
"Airport West, Victoria",-37.724,144.879,3042,City of Moonee Valley
"Wheelers Hill, Victoria",-37.899,145.183,3150,City of Monash
"Oakleigh South, Victoria",-37.917,145.09,3167,City of Monash
"Oakleigh East, Victoria",-37.896,145.112,3166,City of Monash
"Oakleigh, Victoria",-37.913,145.102,3166,City of Monash
"Notting Hill, Victoria",-37.90417,145.14167,3168,City of Monash
"Mulgrave, Victoria",-37.928,145.174,3170,City of Monash
"Mount Waverley, Victoria",-37.877,145.131,3149,City of Monash
"Monash University, Victoria",-37.9083,145.138,3800,City of Monash
"Huntingdale, Victoria",-37.907,145.094,3166,City of Monash
"Hughesdale, Victoria",-37.894,145.085,3166,City of Monash
"Glen Waverley, Victoria",-37.84,145.166,3150,City of Monash
"Clayton, Victoria",-37.915,145.13,3168,City of Monash
"Chadstone, Victoria",-37.883,145.093,3148,City of Monash
"Burwood, Victoria",-37.85,145.114,3125,City of Monash
"Ashwood, Victoria",-37.867,145.103,3147,City of Monash
"Weir Views, Victoria",-37.72917,144.57083,3338,City of Melton
"Truganina, Victoria",-37.817,144.75,3029,City of Melton
"Toolern Vale, Victoria",-37.60806,144.59306,3337,City of Melton
"Thornhill Park, Victoria",-37.72917,144.625,3335,City of Melton
"Taylors Hill, Victoria",-37.715,144.751,3037,City of Melton
"Strathtulloh, Victoria",-37.73472,144.59583,3338,City of Melton
"Rockbank, Victoria",-37.733,144.667,3335,City of Melton
"Ravenhall, Victoria",-37.765,144.75,3023,City of Melton
"Plumpton, Victoria",-37.68806,144.66806,3335,City of Melton
"Melton, Victoria",-37.68333,144.58333,3337,City of Melton
"Kurunjang, Victoria",-37.672,144.585,3337,City of Melton
"Harkness, Victoria",-37.65417,144.54583,3337,City of Melton
"Grangefields, Victoria",-37.70417,144.6375,3335,City of Melton
"Parwan, Victoria",-37.717,144.45,3340,City of Melton
"Mount Cottrell, Victoria",-37.77389,144.63111,3024,City of Melton
"Melton West, Victoria",-37.675,144.555,3337,City of Melton
"Melton South, Victoria",-37.70306,144.57194,3338,City of Melton
"Exford, Victoria",-37.745,144.55889,3338,City of Melton
"Deanside, Victoria",-37.73056,144.70556,3336,City of Melton
"Cobblebank, Victoria",-37.71139,144.60083,3338,City of Melton
"Caroline Springs, Victoria",-37.745,144.74,3023,City of Melton
"Burnside Heights, Victoria",-37.727,144.76,3023,City of Melton
"Fraser Rise, Victoria",-37.70417,144.7125,3336,City of Melton
"Fieldstone, Victoria",-37.75056,144.64833,3024,City of Melton
"Eynesbury, Victoria",-37.76889,144.56889,3338,City of Melton
"Burnside, Victoria",-37.753,144.754,3023,City of Melton
"Brookfield, Victoria",-37.675,144.525,3338,City of Melton
"Bonnie Brook, Victoria",-37.69444,144.66944,3335,City of Melton
"Aintree, Victoria",-37.71806,144.66806,3336,City of Melton
"West Melbourne, Victoria",-37.808,144.927,3003,City of Melbourne
"South Yarra, Victoria",-37.84,144.989,3141,City of Melbourne
"South Wharf, Victoria",-37.825,144.952,3006,City of Melbourne
"Southbank, Victoria",-37.829,144.957,3006,City of Melbourne
"Parkville, Victoria",-37.788,144.951,3052,City of Melbourne
"North Melbourne, Victoria",-37.79917,144.94667,3051,City of Melbourne
"Kensington, Victoria",-37.791,144.931,3031,City of Melbourne
"Flemington, Victoria",-37.785,144.928,3031,City of Melbourne
"East Melbourne, Victoria",-37.813,144.985,3002,City of Melbourne
"Port Melbourne, Victoria",-37.82389,144.91111,3207,City of Melbourne
"Melbourne CBD (St Kilda Road area), Victoria",-37.82056,144.96889,3004,City of Melbourne
"Melbourne CBD, Victoria",-37.814,144.963,3000,City of Melbourne
"Carlton North, Victoria",-37.784,144.969,3054,City of Melbourne
"Docklands, Victoria",-37.817,144.946,3008,City of Melbourne
"Park Orchards, Victoria",-37.778,145.214,3114,City of Maroondah
"Warranwood, Victoria",-37.777,145.249,3134,City of Maroondah
"Vermont, Victoria",-37.838,145.198,3133,City of Maroondah
"Ringwood East, Victoria",-37.818,145.252,3135,City of Maroondah
"Ringwood, Victoria",-37.8114,145.2306,3134,City of Maroondah
"Carlton, Victoria",-37.8001,144.9671,3053,City of Melbourne
"Kilsyth South, Victoria",-37.83,145.32,3137,City of Maroondah
"Kilsyth, Victoria",-37.802,145.316,3137,City of Maroondah
"Croydon Hills, Victoria",-37.775,145.266,3136,City of Maroondah
"Heathmont, Victoria",-37.83,145.242,3135,City of Maroondah
"Croydon South, Victoria",-37.814,145.271,3136,City of Maroondah
"Croydon North, Victoria",-37.767,145.287,3136,City of Maroondah
"Croydon, Victoria",-37.796,145.281,3136,City of Maroondah
"Bayswater North, Victoria",-37.827,145.28,3153,City of Maroondah
"Yarraville, Victoria",-37.817,144.89,3013,City of Maribyrnong
"West Footscray, Victoria",-37.809,144.874,3012,City of Maribyrnong
"Tottenham, Victoria",-37.806,144.857,3012,City of Maribyrnong
"Seddon, Victoria",-37.81,144.894,3011,City of Maribyrnong
"Maribyrnong, Victoria",-37.77,144.893,3032,City of Maribyrnong
"Maidstone, Victoria",-37.783,144.878,3012,City of Maribyrnong
"Kingsville, Victoria",-37.809,144.878,3012,City of Maribyrnong
"Footscray, Victoria",-37.798,144.899,3011,City of Maribyrnong
"Warrandyte South, Victoria",-37.768,145.201,3134,City of Manningham
"Braybrook, Victoria",-37.786,144.856,3019,City of Maribyrnong
"Templestowe Lower, Victoria",-37.765,145.114,3107,City of Manningham
"Wonga Park, Victoria",-37.739,145.267,3115,City of Manningham
"Warrandyte, Victoria",-37.738,145.223,3113,City of Manningham
"Templestowe, Victoria",-37.753,145.135,3106,City of Manningham
"Ringwood North, Victoria",-37.799883,145.226877,3134,City of Manningham
"Nunawading, Victoria",-37.817,145.177,3131,City of Manningham
"Donvale, Victoria",-37.797,145.175,3111,City of Manningham
"Doncaster East, Victoria",-37.783,145.166,3109,City of Manningham
"Park Orchards, Victoria",-37.778,145.214,3114,City of Manningham
"Doncaster, Victoria",-37.78,145.124,3108,City of Manningham
"Bulleen, Victoria",-37.77,145.09,3105,City of Manningham
"Wantirna South, Victoria",-37.881,145.224,3152,City of Knox
"Wantirna, Victoria",-37.844,145.229,3152,City of Knox
"Upper Ferntree Gully, Victoria",-37.895,145.31,3156,City of Knox
"Scoresby, Victoria",-37.894,145.234,3179,City of Knox
"Lysterfield, Victoria",-37.93,145.301,3156,City of Knox
"Rowville, Victoria",-37.937,145.229,3178,City of Knox
"Knoxfield, Victoria",-37.891,145.248,3180,City of Knox
"The Basin, Victoria",-37.86,145.314,3154,City of Knox
"Sassafras, Victoria",-37.87,145.35389,3787,City of Knox
"Ferntree Gully, Victoria",-37.8862,145.2821,3156,City of Knox
"Boronia, Victoria",-37.862,145.286,3155,City of Knox
"Waterways, Victoria",-38.016,145.13,3195,City of Kingston
"Parkdale, Victoria",-37.991,145.08,3195,City of Kingston
"Mordialloc, Victoria",-37.999,145.092,3195,City of Kingston
"Moorabbin Airport, Victoria",-37.97583,145.10222,3194,City of Kingston
"Bayswater, Victoria",-37.843,145.268,3153,City of Knox
"Patterson Lakes, Victoria",-38.076,145.122,3197,City of Kingston
"Heatherton, Victoria",-37.95,145.085,3202,City of Kingston
"Mentone, Victoria",-37.985,145.06889,3194,City of Kingston
"Edithvale, Victoria",-38.037,145.113,3196,City of Kingston
"Chelsea, Victoria",-38.05111,145.12194,3196,City of Kingston
"Dingley Village, Victoria",-37.981,145.128,3172,City of Kingston
"Clayton South, Victoria",-37.947,145.123,3169,City of Kingston
"Clarinda, Victoria",-37.941,145.103,3169,City of Kingston
"Chelsea Heights, Victoria",-38.047,145.137,3196,City of Kingston
"Carrum, Victoria",-38.076,145.122,3197,City of Kingston
"Braeside, Victoria",-38,145.125,3195,City of Kingston
"Bonbeach, Victoria",-38.062,145.12,3196,City of Kingston
"Aspendale Gardens, Victoria",-38.02278,145.11889,3195,City of Kingston
"Aspendale, Victoria",-38.025,145.104,3195,City of Kingston
"Yuroke, Victoria",-37.6,144.88,3063,City of Hume
"Wildwood, Victoria",-37.57167,144.79361,3429,City of Hume
"Oaklands Junction, Victoria",-37.63,144.837,3063,City of Hume
"Kalkallo, Victoria",-37.52694,144.94694,3064,City of Hume
"Mickleham, Victoria",-37.562,144.874,3064,City of Hume
"Sunbury, Victoria",-37.58111,144.71389,3429,City of Hume
"Westmeadows, Victoria",-37.678,144.893,3049,City of Hume
"Somerton, Victoria",-37.633,144.95,3062,City of Hume
"Roxburgh Park, Victoria",-37.627,144.929,3064,City of Hume
"Diggers Rest, Victoria",-37.62806,144.72111,3427,City of Hume
"Melbourne Airport, Victoria",-37.6875,144.84056,3045,City of Hume
"Clarkefield, Victoria",-37.483,144.75,3430,City of Hume
"Bulla, Victoria",-37.63694,144.80306,3428,City of Hume
"Coolaroo, Victoria",-37.657,144.927,3048,City of Hume
"Campbellfield, Victoria",-37.673,144.957,3061,City of Hume
"Meadow Heights, Victoria",-37.65,144.922,3048,City of Hume
"Jacana, Victoria",-37.68,144.912,3047,City of Hume
"Greenvale, Victoria",-37.633,144.883,3059,City of Hume
"Gladstone Park, Victoria",-37.688,144.892,3043,City of Hume
"Dallas, Victoria",-37.668,144.94,3047,City of Hume
"Craigieburn, Victoria",-37.594,144.934,3064,City of Hume
"Seaholme, Victoria",-37.868,144.841,3018,City of Hobsons Bay
"Seabrook, Victoria",-37.876,144.758,3028,City of Hobsons Bay
"Spotswood, Victoria",-37.831,144.887,3015,City of Hobsons Bay
"Broadmeadows, Victoria",-37.685,144.925,3047,City of Hume
"Attwood, Victoria",-37.666,144.887,3049,City of Hume
"Williamstown North, Victoria",-37.855,144.89611,3016,City of Hobsons Bay
"South Kingsville, Victoria",-37.819,144.873,3015,City of Hobsons Bay
"Williamstown, Victoria",-37.861,144.885,3016,City of Hobsons Bay
"Laverton, Victoria",-37.858,144.773,3028,City of Hobsons Bay
"Altona Meadows, Victoria",-37.875,144.782,3028,City of Hobsons Bay
"Bangholme, Victoria",-38.049,145.166,3175,City of Greater Dandenong
"Springvale, Victoria",-37.947,145.153,3171,City of Greater Dandenong
"Springvale South, Victoria",-37.977,145.157,3172,City of Greater Dandenong
"Newport, Victoria",-37.842,144.884,3015,City of Hobsons Bay
"Altona North, Victoria",-37.841,144.849,3025,City of Hobsons Bay
"Altona, Victoria",-37.868,144.83,3018,City of Hobsons Bay
"Noble Park North, Victoria",-37.942,145.19,3174,City of Greater Dandenong
"Noble Park, Victoria",-37.967,145.176,3174,City of Greater Dandenong
"Dandenong South, Victoria",-38.031,145.215,3175,City of Greater Dandenong
"Dandenong North, Victoria",-37.959,145.208,3175,City of Greater Dandenong
"Dandenong, Victoria",-37.981,145.215,3175,City of Greater Dandenong
"St Kilda East, Victoria",-37.862,144.997,3183,City of Glen Eira
"Ormond, Victoria",-37.84,145.0397,3204,City of Glen Eira
"Keysborough, Victoria",-37.989,145.172,3173,City of Greater Dandenong
"McKinnon, Victoria",-37.91,145.039,3204,City of Glen Eira
"Murrumbeena, Victoria",-37.899,145.072,3163,City of Glen Eira
"Carnegie, Victoria",-37.888,145.062,3163,City of Glen Eira
"Caulfield South, Victoria",-37.891,145.026,3162,City of Glen Eira
"Caulfield North, Victoria",-37.873,145.025,3161,City of Glen Eira
"Glen Huntly, Victoria",-37.894,145.046,3163,City of Glen Eira
"Gardenvale, Victoria",-37.899,145.007,3185,City of Glen Eira
"Elsternwick, Victoria",-37.887,145.006,3185,City of Glen Eira
"Caulfield East, Victoria",-37.876,145.044,3145,City of Glen Eira
"Sandhurst, Victoria",-38.081,145.207,3977,City of Frankston
"Caulfield, Victoria",-37.884,145.0266,3162,City of Glen Eira
"Bentleigh East, Victoria",-37.921,145.067,3165,City of Glen Eira
"Bentleigh, Victoria",-37.922,145.036,3204,City of Glen Eira
"Langwarrin South, Victoria",-38.189,145.189,3911,City of Frankston
"Skye, Victoria",-38.119,145.2,3977,City of Frankston
"Seaford, Victoria",-38.105,145.132,3198,City of Frankston
"Langwarrin, Victoria",-38.151,145.181,3910,City of Frankston
"Reservoir, Victoria",-37.713,145.012,3073,City of Darebin
"Frankston South, Victoria",-38.188,145.153,3199,City of Frankston
"Frankston North, Victoria",-38.123,145.153,3200,City of Frankston
"Carrum Downs, Victoria",-38.096,145.178,3201,City of Frankston
"Thornbury, Victoria",-37.76,145.007,3071,City of Darebin
"Preston, Victoria",-37.743,145.008,3072,City of Darebin
"Northcote, Victoria",-37.7722,144.9994,3070,City of Darebin
"Frankston, Victoria",-38.13333,145.11667,3199,City of Frankston
"Kingsbury, Victoria",-37.715,145.034,3083,City of Darebin
"Fairfield, Victoria",-37.792,145.011,3078,City of Darebin
"Alphington, Victoria",-37.78,145.023,3078,City of Darebin
"Lysterfield South, Victoria",-37.949,145.26,3156,City of Casey
"Warneet, Victoria",-38.224,145.309,3980,City of Casey
"Tooradin, Victoria",-38.21111,145.38,3980,City of Casey
"Pearcedale, Victoria",-38.203,145.243,3912,City of Casey
"Lyndhurst, Victoria",-38.04722,145.24472,3975,City of Casey
"Devon Meadows, Victoria",-38.162,145.303,3977,City of Casey
"Cannons Creek, Victoria",-38.213,145.315,3977,City of Casey
"Blind Bight, Victoria",-38.214,145.34,3980,City of Casey
"Narre Warren South, Victoria",-38.055,145.303,3805,City of Casey
"Narre Warren North, Victoria",-37.982,145.314,3804,City of Casey
"Harkaway, Victoria",-37.999,145.344,3806,City of Casey
"Narre Warren, Victoria",-38.018,145.3,3805,City of Casey
"Lynbrook, Victoria",-38.05,145.252,3975,City of Casey
"Junction Village, Victoria",-38.132,145.293,3977,City of Casey
"Hampton Park, Victoria",-38.029,145.26,3976,City of Casey
"Cranbourne North, Victoria",-38.07,145.291,3977,City of Casey
"Hallam, Victoria",-38.009,145.268,3803,City of Casey
"Eumemmerring, Victoria",-37.999,145.247,3177,City of Casey
"Endeavour Hills, Victoria",-37.969,145.2558,3802,City of Casey
"Doveton, Victoria",-37.988,145.239,3177,City of Casey
"Cranbourne South, Victoria",-38.149,145.261,3977,City of Casey
"Cranbourne East, Victoria",-38.105,145.307,3977,City of Casey
"Clyde North, Victoria",-38.117,145.333,3978,City of Casey
"Clyde, Victoria",-38.132,145.327,3978,City of Casey
"Botanic Ridge, Victoria",-38.144,145.267,3977,City of Casey
"Berwick, Victoria",-38.031,145.344,3806,City of Casey
"Yannathan, Victoria",-38.233,145.633,3894,Shire of Cardinia
"Vervale, Victoria",-38.133,145.667,3814,Shire of Cardinia
"Cranbourne, Victoria",-38.105,145.279,3977,City of Casey
"Rythdale, Victoria",-38.15,145.456,3810,Shire of Cardinia
"Pakenham Upper, Victoria",-38.0712,145.4878,3810,Shire of Cardinia
"Pakenham South, Victoria",-38.0712,145.4878,3810,Shire of Cardinia
"Tynong North, Victoria",-38.083,145.617,3813,Shire of Cardinia
"Officer South, Victoria",-38.05806,145.40889,3809,Shire of Cardinia
"Tynong, Victoria",-38.083333,145.616667,3813,Shire of Cardinia
"Tooradin North, Victoria",-38.21111,145.38,3977,Shire of Cardinia
"Tonimbuk, Victoria",-38,145.717,3815,Shire of Cardinia
"Dewhurst, Victoria",-37.978,145.464,3809,Shire of Cardinia
"Dalmore, Victoria",-38.19,145.425,3981,Shire of Cardinia
"Cora Lynn, Victoria",-38.14528,145.60583,3814,Shire of Cardinia
"Nyora, Victoria",-38.333,145.667,3987,Shire of Cardinia
"Nar Nar Goon North, Victoria",-38.019,145.551,3812,Shire of Cardinia
"Nar Nar Goon, Victoria",-38.08194,145.575,3812,Shire of Cardinia
"Nangana, Victoria",-37.867,145.533,3781,Shire of Cardinia
"Garfield, Victoria",-38.067,145.683,3814,Shire of Cardinia
"Cockatoo, Victoria",-37.935,145.492,3781,Shire of Cardinia
"Clematis, Victoria",-37.929,145.423,3782,Shire of Cardinia
"Catani, Victoria",-38.183,145.65,3981,Shire of Cardinia
"Cardinia, Victoria",-38.147,145.423,3978,Shire of Cardinia
"Caldermeade, Victoria",-38.25,145.552,3984,Shire of Cardinia
"Bunyip North, Victoria",-38.067,145.717,3815,Shire of Cardinia
"Bunyip, Victoria",-38.083,145.717,3815,Shire of Cardinia
"Beaconsfield Upper, Victoria",-37.996,145.415,3808,Shire of Cardinia
"Bayles, Victoria",-38.182,145.575,3981,Shire of Cardinia
"Avonsleigh, Victoria",-37.925,145.48194,3782,Shire of Cardinia
"Pakenham, Victoria",-38.0712,145.4878,3810,Shire of Cardinia
"Officer, Victoria",-38.05806,145.40889,3809,Shire of Cardinia
"Emerald, Victoria",-37.93306,145.43694,3782,Shire of Cardinia
"Beaconsfield, Victoria",-38.049,145.371,3807,Shire of Cardinia
"Tullamarine, Victoria",-37.701,144.876,3043,City of Brimbank
"Taylors Lakes, Victoria",-37.701,144.796,3038,City of Brimbank
"Sydenham, Victoria",-37.702,144.767,3037,City of Brimbank
"Kings Park, Victoria",-37.734,144.772,3021,City of Brimbank
"Keilor Park, Victoria",-37.719,144.851,3042,City of Brimbank
"Keilor North, Victoria",-37.68,144.784,3036,City of Brimbank
"Sunshine, Victoria",-37.781,144.832,3020,City of Brimbank
"St Albans, Victoria",-37.73611,144.80389,3021,City of Brimbank
"Keilor Lodge, Victoria",-37.694,144.79,3038,City of Brimbank
"Sunshine West, Victoria",-37.795,144.816,3020,City of Brimbank
"Keilor East, Victoria",-37.74167,144.86306,3033,City of Brimbank
"Keilor Downs, Victoria",-37.722,144.803,3038,City of Brimbank
"Keilor, Victoria",-37.712,144.831,3036,City of Brimbank
"Derrimut, Victoria",-37.795,144.766,3030,City of Brimbank
"Kealba, Victoria",-37.739,144.828,3021,City of Brimbank
"Hillside, Victoria",-37.687,144.743,3037,City of Brimbank
"Sunshine North, Victoria",-37.756,144.849,3020,City of Brimbank
"Delahey, Victoria",-37.719,144.777,3037,City of Brimbank
"Calder Park, Victoria",-37.679,144.762,3037,City of Brimbank
"Cairnlea, Victoria",-37.757,144.784,3023,City of Brimbank
"Brooklyn, Victoria",-37.813,144.841,3012,City of Brimbank
"Ardeer, Victoria",-37.785,144.802,3022,City of Brimbank
"Albion, Victoria",-37.781,144.8145,3020,City of Brimbank
"Deer Park, Victoria",-37.763,144.767,3023,City of Brimbank
"Surrey Hills, Victoria",-37.83,145.106,3127,City of Boroondara
"Albanvale, Victoria",-37.746,144.765,3021,City of Brimbank
"Mont Albert North, Victoria",-37.80806,145.11389,3127,City of Boroondara
"Mont Albert, Victoria",-37.81611,145.11,3127,City of Boroondara
"Kew East, Victoria",-37.79694,145.05694,3102,City of Boroondara
"Hawthorn East, Victoria",-37.831,145.05,3123,City of Boroondara
"Hawthorn, Victoria",-37.826,145.034,3122,City of Boroondara
"Glen Iris, Victoria",-37.856,145.059,3146,City of Boroondara
"Deepdene, Victoria",-37.81306,145.06778,3103,City of Boroondara
"Kew, Victoria",-37.80528,145.03583,3101,City of Boroondara
"Balwyn North, Victoria",-37.79361,145.08639,3104,City of Boroondara
"Canterbury, Victoria",-37.825,145.078,3126,City of Boroondara
"Camberwell, Victoria",-37.835,145.071,3124,City of Boroondara
"Highett, Victoria",-37.95,145.05,3190,City of Bayside
"Balwyn, Victoria",-37.80889,145.07889,3103,City of Boroondara
"Ashburton, Victoria",-37.86694,145.08306,3147,City of Boroondara
"Sandringham, Victoria",-37.9525,145.012311,3191,City of Bayside
"Moorabbin, Victoria",-37.941,145.058,3189,City of Bayside
"Hampton East, Victoria",-37.939,145.031,3188,City of Bayside
"Hampton, Victoria",-37.937,145.009,3188,City of Bayside
"Gardenvale, Victoria",-37.899,145.007,3185,City of Bayside
"Black Rock, Victoria",-37.972,145.021,3193,City of Bayside
"Beaumaris, Victoria",-37.983,145.0434,3193,City of Bayside
"Cheltenham, Victoria",-37.967,145.068,3192,City of Bayside
"Brighton East, Victoria",-37.916,145.015,3187,City of Bayside
"Brighton, Victoria",-37.905,144.996,3186,City of Bayside
"Yallambie, Victoria",-37.726,145.104,3085,City of Banyule
"Watsonia North, Victoria",-37.7,145.081,3087,City of Banyule
"Watsonia, Victoria",-37.708,145.083,3087,City of Banyule
"Lower Plenty, Victoria",-37.734,145.116,3093,City of Banyule
"Viewbank, Victoria",-37.731,145.1,3084,City of Banyule
"St Helena, Victoria",-37.686,145.137,3088,City of Banyule
"Rosanna, Victoria",-37.737,145.069,3084,City of Banyule
"Montmorency, Victoria",-37.719,145.126,3094,City of Banyule
"Macleod, Victoria",-37.714,145.066,3085,City of Banyule
"Heidelberg West, Victoria",-37.744,145.047,3081,City of Banyule
"Heidelberg Heights, Victoria",-37.742,145.053,3081,City of Banyule
"Heidelberg, Victoria",-37.752,145.07,3084,City of Banyule
"Eltham North, Victoria",-37.698,145.144,3095,City of Banyule
"Eltham, Victoria",-37.715,145.158,3095,City of Banyule
"Ivanhoe East, Victoria",-37.772,145.066,3079,City of Banyule
"Ivanhoe, Victoria",-37.7703,145.0457,3079,City of Banyule
"Greensborough, Victoria",-37.686,145.117,3088,City of Banyule
"Eaglemont, Victoria",-37.763,145.066,3084,City of Banyule
"Bundoora, Victoria",-37.695,145.064,3083,City of Banyule
"Briar Hill, Victoria",-37.708,145.115,3088,City of Banyule